"","OBJECTID","SITE_NAME","OWNERSHIP","PROTECTION","TYPECODE","DISTRICT","ACRES","ADDRESS","ZonAgg","TypeLong","OS_Own_Jur","OS_Mngmnt","POS","PA","ALT_NAME","AgncyJuris","Shape_STArea__","Shape_STLength__","PARK_ID","REGION","ShapeSTArea","ShapeSTLength","Lat","Lon"
"2",2,"Nickerson Field","Private"," ",3,"Allston-Brighton",6.34559501," ","Institutional District","Parks, Playgrounds & Athletic Fields","NULL"," ","N","N","Boston University Field","",0,0,NA,"INFO_Reallocation From Dept",276419.032470703,2104.70261132196,42.353333,-71.11916
"3",3,"Hooker Sorrento Street Playground","City of Boston","A97",3,"Allston-Brighton",1.00537799,"120 Hooker Str.","Open Space District","Parks, Playgrounds & Athletic Fields","BPRD"," ","X","X"," ","",0,0,NA,"PARK_Maintenance_Region 4",43737.3513183594,852.844111741326,42.3659432,-71.0324121
"4",4,"Smith Playground","City of Boston","A97",3,"Allston-Brighton",14.79771231,"235 Western Ave.","Open Space District","Parks, Playgrounds & Athletic Fields","BPRD"," ","X","X"," ","",0,0,NA,"PARK_Maintenance_Region 4",654457.503662109,3624.89362059887,42.3635468,-71.1322849
"6",6,"Ringer Playground","City of Boston","A97",3,"Allston-Brighton",10.25585494," ","Open Space District","Parks, Playgrounds & Athletic Fields","BPRD"," ","X","X"," ","",0,0,NA,"PARK_Maintenance_Region 4",447031.205078125,3765.82938421239,42.3507371,-71.137796
"8",8,"McKinney Playground","City of Boston","A97",3,"Allston-Brighton",5.89138132,"61-74 Faneuil Str.","Open Space District","Parks, Playgrounds & Athletic Fields","BPRD"," ","X","X"," ","",0,0,NA,"PARK_Maintenance_Region 4",256633.134765625,2170.12626813511,42.3550448,-71.1526497
"9",9,"Hobart Park","City of Boston","A97",3,"Allston-Brighton",0.80884689,"Opposite 18 Ranlegh Rd.","Open Space District","Parks, Playgrounds & Athletic Fields","BPRD"," ","X","X"," ","",0,0,NA,"PARK_Maintenance_Region 4",35233.9973144531,797.596802155951,42.3552491,-71.1610219
"12",12,"Reilly Playground","Commonwealth of Massachusetts","A97",3,"Allston-Brighton",6.96695306," ","Open Space District","Parks, Playgrounds & Athletic Fields","DCR"," ","X","X"," ","",0,0,NA,"INFO_Reallocation From Dept",303485.871826172,2550.50594926454,42.3643243,-71.137841
"15",15,"Hardiman Playground","City of Boston","A97",3,"Allston-Brighton",1.47302947,"Adair Road/Faneuil Str.","Open Space District","Parks, Playgrounds & Athletic Fields","BPRD"," ","X","X"," ","",0,0,NA,"PARK_Maintenance_Region 4",64166.3046875,1064.40425969765,42.3512573,-71.1662032
"18",18,"Rogers Park","City of Boston","A97",3,"Allston-Brighton",8.17116962,"Adjacent to 91 Foster St","Open Space District","Parks, Playgrounds & Athletic Fields","BPRD"," ","X","X","Galvin Park","",0,0,NA,"PARK_Maintenance_Region 4",355942.476806641,2579.29301493364,42.3474752,-71.1591779
"23",23,"Boston College Athletic Fields","Private"," ",3,"Allston-Brighton",9.72386143," ","Institutional District","Parks, Playgrounds & Athletic Fields","NULL"," ","N","N"," ","",0,0,NA,"INFO_Reallocation From Dept",423578.935058594,3571.94170217031,42.3351179,-71.1664609
"24",24,"Chandler Pond","City of Boston","A97/WPA",3,"Allston-Brighton",18.90802906,"Opposite 44 Lake Shore Rd","Open Space District","Parks, Playgrounds & Athletic Fields","BPRD"," ","X","X","Gallagher Mem. Park","",0,0,NA,"PARK_Maintenance_Region 4",829074.783691406,4020.12494728014,42.3453061,-71.1652749
"30",30,"Downer Avenue Playground","City of Boston","A97",3,"Dorchester",0.80889778,"43 Downer Ave.","Residential District","Parks, Playgrounds & Athletic Fields","BPRD"," ","X","X"," ","",0,0,NA,"PARK_Maintenance_Region 2",32827.3276367188,913.509196912492,42.3115545,-71.0617552
"32",32,"Quincy Stanley Play Area","City of Boston","A97",3,"Dorchester",0.3724094,"Quincy Str.","Residential District","Parks, Playgrounds & Athletic Fields","BPRD"," ","X","X"," ","",0,0,NA,"PARK_Maintenance_Region 5",16344.8681640625,529.790732197091,42.283215,-71.0777259
"33",33,"Deer Street Park","City of Boston","A97",3,"Dorchester",0.24478116,"Opposite 34 Deer Str.","Residential District","Parks, Playgrounds & Athletic Fields","BPRD"," ","X","X"," ","",0,0,NA,"PARK_Maintenance_Region 2",10740.0939941406,487.057189630088,42.3110019,-71.0587374
"37",37,"McConnell Park","City of Boston","A97",3,"Dorchester",6.20127641,"28 Denny Str./Playstead Rd","Open Space District","Parks, Playgrounds & Athletic Fields","BPRD"," ","X","X"," ","",0,0,NA,"PARK_Maintenance_Region 2",279017.470458984,3043.68137223396,42.3088377,-71.0523768
"38",38,"Boston Common","City of Boston","A97/NHL",3,"Back Bay/Beacon Hill",46.52264921,"139 Tremont Str. @VIC","Open Space District","Parks, Playgrounds & Athletic Fields","BPRD","BPRD","X","X"," ","",0,0,NA,"PARK_Maintenance_Region 1",1992352.51342773,6329.29865578967,42.3549544,-71.0654886
"40",40,"Public Garden","City of Boston","A97",3,"Back Bay/Beacon Hill",23.51,"Boylston, Arlington, Charles","Open Space District","Parks, Playgrounds & Athletic Fields","BPRD","BPRD","X","X"," ","",0,0,NA,"PARK_Maintenance_Region 1",1023949.00854492,4131.46132622771,42.3541614,-71.0704078
"42",42,"Phillips Street Play Area","City of Boston","A97",3,"Back Bay/Beacon Hill",0.11526636,"Phillips Str.","Residential District","Parks, Playgrounds & Athletic Fields","BPRD","BPRD","X","X"," ","",0,0,NA,"PARK_Maintenance_Region 1",5021.09252929688,330.554053131274,42.3605265,-71.0673729
"43",43,"Myrtle Street Playground","City of Boston","A97",3,"Back Bay/Beacon Hill",0.14766565,"Opposite 28 Phillips Str.","Residential District","Parks, Playgrounds & Athletic Fields","BPRD"," ","X","X"," ","",0,0,NA,"PARK_Maintenance_Region 1",7001.39770507812,342.298412192708,42.3592065,-71.0661188
"48",48,"Clarendon Street Playlot","City of Boston","A97",3,"Back Bay/Beacon Hill",0.33235436," ","Residential District","Parks, Playgrounds & Athletic Fields","BPRD"," ","X","X"," ","",0,0,NA,"PARK_Maintenance_Region 1",14108.8996582031,475.648939317964,42.3528152,-71.0765447
"50",50,"DeFilippo Playground","City of Boston","A97",3,"Central Boston",1.11555607,"135 Prince Str.","Open Space District","Parks, Playgrounds & Athletic Fields","BPRD"," ","X","X"," "," ",0,0,NA,"PARK_Maintenance_Region 1",48701.7102050781,969.026371993307,42.3665145,-71.0570196
"53",53,"Foster Street Play Area","City of Boston","A97",3,"Central Boston",0.10503572," ","Open Space District","Parks, Playgrounds & Athletic Fields","BPRD"," ","X","X"," ","",0,0,NA,"PARK_Maintenance_Region 1",4686.06958007812,298.407257259619,42.3553662,-71.1616569
"54",54,"Charter Street Park","City of Boston","A97",3,"Central Boston",0.23534031,"Opposite 26 Charter Str.","Open Space District","Parks, Playgrounds & Athletic Fields","BPRD"," ","X","X"," ","",0,0,NA,"PARK_Maintenance_Region 1",10397.5825195312,495.821153780475,42.3671803,-71.054599
"56",56,"Polcari Park","City of Boston","A97",3,"Central Boston",0.28857259,"Opposite 44 Prince Str.","Open Space District","Parks, Playgrounds & Athletic Fields","BPRD"," ","X","X"," ","",0,0,NA,"PARK_Maintenance_Region 1",12570.4455566406,529.043123404816,42.3650019,-71.054466
"57",57,"Cutillo Park","City of Boston","A97",3,"Central Boston",0.28491861,"Opposite 15 Stillman Str.","Open Space District","Parks, Playgrounds & Athletic Fields","BPRD"," ","X","X"," ","",0,0,NA,"PARK_Maintenance_Region 1",12603.5688476562,505.561349462935,42.3635537,-71.056416
"60",60,"Norman B. Leventhal Park","Private","A97/Agrmnt",3,"Central Boston",1.54521864,"130 Congress Str.","Commercial/Office/Business District","Parks, Playgrounds & Athletic Fields","BRA","Private","X","X","Post Office Square Park","",0,0,NA,"INFO_Reallocation From Dept",67832.951171875,1076.30688774372,42.3561656,-71.0555339
"65",65,"Langone Park","City of Boston","A97/Ch91/WPA",3,"Central Boston",2.18,"529 Commercial Str.","Open Space District","Parks, Playgrounds & Athletic Fields","BPRD"," ","X","X"," ","",0,0,NA,"PARK_Maintenance_Region 1",95123.421875,1350.23993072625,42.3687115,-71.0560417
"70",70,"Tai Tung Park","City of Boston","A97",3,"Central Boston",0.03323863,"110 Tyler Street, Corner w/Tai Tung St.","Open Space District","Parks, Playgrounds & Athletic Fields","BPRD"," ","X","X","Tai Tung Tot Lot","",0,0,NA,"PARK_Maintenance_Region 1",1458.97265625,185.311413489551,42.3482997,-71.0615268
"71",71,"Pine Street Park","BRA"," ",3,"Central Boston",0.27166117," ","Residential District","Parks, Playgrounds & Athletic Fields","NULL"," ","N"," "," ","",0,0,NA,"PARK_Maintenance_Ground Maintenance",12309.1796875,543.203010960287,42.3431523,-71.064588
"74",74,"Edwards Playground","City of Boston","A97",3,"Charlestown",1.34,"10 Eden Str.","Commercial/Office/Business District","Parks, Playgrounds & Athletic Fields","BPRD"," ","X","X","McCarthy-Eden Plgd","",0,0,NA,"PARK_Maintenance_Region 1",58311.8923339844,1051.74273857358,42.37942,-71.0684121
"78",78,"Charlestown HS Athletic Fields","City of Boston","Ch91/WPA",3,"Charlestown",10.42,"Opposite 240 Medford St","Open Space District","Parks, Playgrounds & Athletic Fields","NULL","BPRD","N","X","Little Mystic Harborwalk","",0,0,NA,"PARK_Maintenance_Region 1",453734.610839844,5785.1936813186,42.3800262,-71.0610777
"79",79,"Ryan Playground","City of Boston","A97/Ch91/WPA",3,"Charlestown",8.78,"62 Alford Street","Open Space District","Parks, Playgrounds & Athletic Fields","BPRD"," ","X","X"," ","",0,0,NA,"PARK_Maintenance_Region 1",382283.078857422,2922.47871314675,42.2698189,-71.0850611
"81",81,"Barry Playground","City of Boston","A97/Ch91/WPA",3,"Charlestown",3.32,"41 Medford St","Open Space District","Parks, Playgrounds & Athletic Fields","BPRD"," ","X","X"," ","",0,0,NA,"PARK_Maintenance_Region 1",154686.39453125,1668.70186437779,42.3796512,-71.0531196
"82",82,"Doherty Playground","City of Boston","A97/USH",3,"Charlestown",3.02175616,"349 Bunker Hill Str.","Residential District","Parks, Playgrounds & Athletic Fields","BPRD"," ","X","X"," ","",0,0,NA,"PARK_Maintenance_Region 1",163447.6875,1672.62207580619,42.3823062,-71.0677907
"89",89,"East Boston Memorial Park I","City of Boston","A97",3,"East Boston",14.79060502," ","Open Space District","Parks, Playgrounds & Athletic Fields","BPRD"," ","X","X","Satori Stadium","",0,0,NA,"PARK_Maintenance_Region 1",770074.514648438,7044.28157992587,42.3720445,-71.0312049
"90",90,"Noyes Playground","City of Boston","A97",3,"East Boston",8.22374845,"86 Boardman St.","Open Space District","Parks, Playgrounds & Athletic Fields","BPRD"," ","X","X"," ","",0,0,NA,"PARK_Maintenance_Region 1",362270.787597656,2733.82070032443,42.3877086,-71.0100319
"93",93,"Cuneo Park","City of Boston","A97",3,"East Boston",0.23067238," ","Residential District","Parks, Playgrounds & Athletic Fields","BPRD"," ","X","X","Saratoga St. Play Area","",0,0,NA,"PARK_Maintenance_Region 1",10048.2678222656,400.930101738034,42.3836579,-71.0167541
"95",95,"American Legion Playground","City of Boston","A97",3,"East Boston",3.38388095,"24 Glendon Str.","Open Space District","Parks, Playgrounds & Athletic Fields","BPRD"," ","X","X"," ","",0,0,NA,"PARK_Maintenance_Region 1",147249.758300781,1538.69094238492,42.3819423,-71.0294996
"98",98,"Paris Street Playground","City of Boston","A97",3,"East Boston",0.79449789,"121 Paris Str.","Open Space District","Parks, Playgrounds & Athletic Fields","BPRD"," ","X","X"," ","",0,0,NA,"PARK_Maintenance_Region 1",34608.943359375,889.17242971372,42.3724524,-71.0395302
"99",99,"Brophy Park","City of Boston","A97",3,"East Boston",0.77383094,"Opposite 195 Webster Str.","Open Space District","Parks, Playgrounds & Athletic Fields","BPRD"," ","X","X","Belmont Square","",0,0,NA,"PARK_Maintenance_Region 1",34084.6674804688,773.872962702347,42.3656886,-71.0335264
"100",100,"Sumner & Lamson Street Playground","City of Boston","A97",3,"East Boston",0.48357588,"Opposite 492 Sumner Str.","Open Space District","Parks, Playgrounds & Athletic Fields","BPRD"," ","X","X"," ","",0,0,NA,"PARK_Maintenance_Region 1",20849.0988769531,617.092144744697,42.3600825,-71.0588801
"103",103,"Festa Field","Massport"," ",3,"East Boston",0.99445051," ","Special District","Parks, Playgrounds & Athletic Fields","Massport"," ","N"," "," ","",0,0,NA,"INFO_Reallocation From Dept",43319.0344238281,841.569810064438,42.3814236,-71.0199172
"106",106,"Dom Savio Athletic Field","Private"," ",3,"East Boston",3.11070765," ","Residential District","Parks, Playgrounds & Athletic Fields","NULL"," ","N"," "," ","",0,0,NA,"INFO_Reallocation From Dept",135504.834228516,1801.65082947453,42.3831684,-71.0151395
"107",107,"Fenway Park Field","Private"," ",3,"Fenway/Kenmore",2.78," ","Industrial District","Parks, Playgrounds & Athletic Fields","NULL"," ","N"," ","Baseball Field at Fenway Park","",0,0,NA,"INFO_Reallocation From Dept",121268.338378906,1376.70645049731,42.3466764,-71.0972178
"108",108,"Symphony Community Park","City of Boston","A97",3,"Fenway/Kenmore",0.49679593,"Edgerly Road btwn Norway and Burbank Sts.","Commercial/Office/Business District","Parks, Playgrounds & Athletic Fields","BPRD"," ","X","X","Morville Park","",0,0,NA,"PARK_Maintenance_Region 3",20803.8408203125,777.079467815473,42.3447808,-71.087568
"109",109,"Edgerly Road Playground","City of Boston","A97",3,"Fenway/Kenmore",0.1081164,"6 Edgerly Road","Special District","Parks, Playgrounds & Athletic Fields","BPRD"," ","X","X"," ","",0,0,NA,"PARK_Maintenance_Region 3",5366.22534179688,301.104383431028,42.3463001,-71.0879858
"111",111,"Wentworth Field","Private"," ",3,"Fenway/Kenmore",2.98150699," ","Institutional District","Parks, Playgrounds & Athletic Fields","NULL"," ","N"," "," ","",0,0,NA,"INFO_Reallocation From Dept",129876.753417969,1603.72462089262,42.3376965,-71.0940476
"132",132,"Connell Fields Hickey Courts","Commonwealth of Massachusetts","A97",3,"Hyde Park",4.1483742," ","Residential District","Parks, Playgrounds & Athletic Fields","DCR"," ","X","X","Smith Pond Playground","",0,0,NA,"INFO_Reallocation From Dept",731043.537353516,3936.99876363641,42.3600825,-71.0588801
"133",133,"Weider Park","Commonwealth of Massachusetts","A97",3,"Hyde Park",6.91931115," ","Residential District","Parks, Playgrounds & Athletic Fields","DCR"," ","X","X","Sherrin&Dale St.","",0,0,NA,"INFO_Reallocation From Dept",299833.948730469,2275.15057508057,42.2710446,-71.1236845
"138",138,"Doyle Playground","Commonwealth of Massachusetts","A97",3,"Hyde Park",0.94486646," ","Residential District","Parks, Playgrounds & Athletic Fields","DCR"," ","X","X"," ","",0,0,NA,"INFO_Reallocation From Dept",41159.1145019531,1303.270731445,42.2612278,-71.1118936
"142",142,"Amatucci Playground","City of Boston","A97",3,"Hyde Park",0.44867941,"Opposite 1661 Hyde Park Ave.","Commercial/Office/Business District","Parks, Playgrounds & Athletic Fields","BPRD"," ","X","X"," ","",0,0,NA,"PARK_Maintenance_Region 4",20293.240234375,613.11773062285,42.2485484,-71.1265626
"143",143,"Moynihan Playground","Commonwealth of Massachusetts","A97",3,"Hyde Park",7.18571325," ","Residential District","Parks, Playgrounds & Athletic Fields","DCR"," ","X","X"," ","",0,0,NA,"INFO_Reallocation From Dept",313015.234863281,2601.67760926123,42.2439214,-71.12517
"144",144,"Iacono Readville Playground","City of Boston","A97",3,"Hyde Park",4.91402344,"159 Readville Str.","Residential District","Parks, Playgrounds & Athletic Fields","BPRD"," ","X","X"," ","",0,0,NA,"PARK_Maintenance_Region 4",214058.666870117,2079.8024636076,42.2396106,-71.1348252
"145",145,"Camp Meigs","Commonwealth of Massachusetts","A97/ACEC",3,"Hyde Park",2.86583949," ","Residential District","Parks, Playgrounds & Athletic Fields","DCR"," ","X","X"," ","",0,0,NA,"INFO_Reallocation From Dept",124838.188232422,1506.55642337406,42.2348204,-71.1320401
"147",147,"Stony Brook Recreation Complex","Commonwealth of Massachusetts","A97",3,"Hyde Park",27.39,"Corner Turtle Pond Parkway & River Street","Residential District","Parks, Playgrounds & Athletic Fields","DCR"," ","X","X","Kelly/Factory Hill (Lawler)/Bajko/Olsen","",0,0,NA,"INFO_Reallocation From Dept",1193277.17578125,5359.04328763696,42.3600825,-71.0588801
"154",154,"Mission Hill Playground","City of Boston","A97",3,"Jamaica Plain",2.68681793,"60 Smith Str.","Open Space District","Parks, Playgrounds & Athletic Fields","BPRD"," ","X","X","Sheehy-Smith Playground","",0,0,NA,"PARK_Maintenance_Region 3",117039.870361328,1538.12633505761,42.3330516,-71.0993596
"155",155,"Gibbons Playground","City of Boston","A97",3,"Jamaica Plain",0.11,"10 Sewall Str.","Open Space District","Parks, Playgrounds & Athletic Fields","BPRD"," ","X","X","Delle Avenue Playground","",0,0,NA,"PARK_Maintenance_Region 3",4569.10595703125,285.677634585056,42.3311398,-71.0983847
"156",156,"Mozart Street Playground","City of Boston","A97",3,"Jamaica Plain",0.8062696,"28 Mozart Str.","Open Space District","Parks, Playgrounds & Athletic Fields","BPRD"," ","X","X","Holland Plgd","",0,0,NA,"PARK_Maintenance_Region 3",35121.728515625,768.172462771436,42.3223489,-71.104559
"158",158,"Beecher Street Play Area","City of Boston","A97",3,"Jamaica Plain",0.1742426,"105 Paul Gore Str.","Open Space District","Parks, Playgrounds & Athletic Fields","BPRD"," ","X","X"," ","",0,0,NA,"PARK_Maintenance_Region 3",7590.14306640625,362.774500408284,42.3600825,-71.0588801
"159",160,"Murphy Playground","City of Boston","",3,"Jamaica Plain",2.59767464,"20 Child Str.","Open Space District","Parks, Playgrounds & Athletic Fields","NULL","BPRD","N","X"," ","BPS",0,0,NA,"PARK_Maintenance_Region 3",110805.930664062,1666.94695700214,42.3074686,-71.113238
"164",165,"English H.S. Athletic Fields","City of Boston"," ",3,"Jamaica Plain",7.63320583,"144 McBride Str.","Open Space District","Parks, Playgrounds & Athletic Fields","NULL","BPRD","N","X"," ","",0,0,NA,"PARK_Maintenance_Region 3",332508.357666016,3592.43957997497,42.2878,-71.131233
"165",166,"Johnson Park II","City of Boston","A97",3,"Jamaica Plain",0.17063559," ","Open Space District","Parks, Playgrounds & Athletic Fields","NULL","DCR","N","X"," ","",0,0,NA,"INFO_Reallocation From Dept",7433.01635742188,567.290656109892,42.3226252,-71.1036472
"166",167,"Johnson Park I","Commonwealth of Massachusetts","A97",3,"Jamaica Plain",2.60085765," ","Open Space District","Parks, Playgrounds & Athletic Fields","DCR"," ","X","X"," ","",0,0,NA,"INFO_Reallocation From Dept",113295.372070312,1467.48540390041,42.311327,-71.1079014
"168",169,"Hellenic College Athletic Field","Private"," ",3,"Jamaica Plain",3.40660796," ","Conservation Protection Subdistrict","Parks, Playgrounds & Athletic Fields","NULL"," ","N"," "," ","",0,0,NA,"INFO_Reallocation From Dept",148394.480712891,1655.39382262835,42.3169836,-71.1262841
"173",174,"Thetford Evans Playground","City of Boston","A97",3,"Mattapan",0.68,"Corner of Thetford & Evans Sts","Residential District","Parks, Playgrounds & Athletic Fields","BPRD"," ","X","X"," "," ",0,0,NA,"PARK_Maintenance_Region 2",29759.8840332031,699.929544109645,42.283215,-71.0777259
"179",180,"Msgr. Francis A. Ryan Park","Commonwealth of Massachusetts","A97",3,"Mattapan",6.14129551," ","Open Space District","Parks, Playgrounds & Athletic Fields","DCR"," ","X","X"," ","",0,0,NA,"INFO_Reallocation From Dept",267519.58984375,2585.46469262542,42.3600825,-71.0588801
"183",184,"Walker Playground","City of Boston","A97",3,"Mattapan",5.9534334,"550 Norfolk Str.","Commercial/Office/Business District","Parks, Playgrounds & Athletic Fields","BPRD"," ","X","X"," ","",0,0,NA,"PARK_Maintenance_Region 2",259336.168945312,2437.93893800278,42.2778255,-71.0893358
"184",185,"Kennedy Playground","Commonwealth of Massachusetts","A97",3,"Mattapan",0.26002942," ","Open Space District","Parks, Playgrounds & Athletic Fields","DCR"," ","X","X","Charles Plgd","",0,0,NA,"INFO_Reallocation From Dept",11327.0830078125,485.668205218175,42.2654693,-71.0959707
"187",188,"Weld Hill Tract","Private"," ",3,"Roslindale",14.11,"Centre, Weld & Walter Streets","Conservation Protection Subdistrict","Parks, Playgrounds & Athletic Fields","NULL","Private","N","X","Walter Street Tract, Arnold Arboretum","",0,0,NA,"INFO_Reallocation From Dept",614572.606445312,4031.6300483697,42.3600825,-71.0588801
"188",189,"Pagel Playground","City of Boston","A97",3,"Roslindale",2.72504189,"365 Hyde Park Ave.","Open Space District","Parks, Playgrounds & Athletic Fields","BPRD"," ","X","X"," "," ",0,0,NA,"PARK_Maintenance_Region 4",118355.528564453,1652.93422804545,42.2890785,-71.1186711
"189",190,"Parkman Playground","City of Boston","A97",3,"Roslindale",2.06809445,"58 Wachusett Str.","Open Space District","Parks, Playgrounds & Athletic Fields","BPRD"," ","X","X"," ","",0,0,NA,"PARK_Maintenance_Region 4",90087.7961425781,1277.67477714408,42.2958614,-71.1131006
"191",192,"Fallon Field","City of Boston","A97",3,"Roslindale",7.51145116,"940 South Str.","Residential District","Parks, Playgrounds & Athletic Fields","BPRD"," ","X","X"," ","",0,0,NA,"PARK_Maintenance_Region 4",327204.629150391,2373.30290801095,42.287344,-71.1355679
"192",193,"Poplar Street Play Area","City of Boston","A97",3,"Roslindale",0.44211382,"Opposite 238 Poplar St.","Open Space District","Parks, Playgrounds & Athletic Fields","BPRD"," ","X","X","Hillside Play Area","",0,0,NA,"PARK_Maintenance_Region 4",18995.9931640625,613.585565994151,42.2806814,-71.1265626
"197",198,"Whittier Playground","City of Boston"," ",3,"Roxbury",0.27550283," ","Open Space District","Parks, Playgrounds & Athletic Fields","NULL"," ","N","X"," ","",0,0,NA,"INFO_Reallocation From Dept",12001.1169433594,461.221635361202,42.333961,-71.0883572
"199",200,"King Street Play Area","City of Boston","A97",3,"Roxbury",0.13,"239 Roxbury Street","Open Space District","Parks, Playgrounds & Athletic Fields","BPRD","Private","X","X","Play Area #4","BPRD",0,0,NA,"PARK_Maintenance_Region 5",5457.4541015625,307.742056399031,42.3302644,-71.0928139
"200",201,"Jeep Jones Park","City of Boston","A97",3,"Roxbury",1.82,"221 Roxbury Str.","Open Space District","Parks, Playgrounds & Athletic Fields","BPRD"," ","X","X"," ","",0,0,NA,"PARK_Maintenance_Region 5",79196.2839355469,1230.88351427941,42.3308939,-71.0919319
"204",205,"St James Street Park","City of Boston","A97",3,"Roxbury",0.38489331,"Adjacent to 35 St. James Str.","Open Space District","Parks, Playgrounds & Athletic Fields","BPRD"," ","X","X"," ","",0,0,NA,"PARK_Maintenance_Region 5",17115.8156738281,562.33302715038,42.3269894,-71.0851539
"205",207,"Malcolm X Park I","City of Boston","A97",3,"Roxbury",15.12,"158 Walnut Avenue","Open Space District","Parks, Playgrounds & Athletic Fields","BPRD"," ","X","X","Washington Park","",0,0,NA,"PARK_Maintenance_Region 5",658608.477294922,3913.71002466764,42.3213559,-71.0891464
"206",208,"Horatio Harris Park","City of Boston","A97",3,"Roxbury",2.52189718,"Opposite 227 Walnut Ave","Open Space District","Parks, Playgrounds & Athletic Fields","BPRD"," ","X","X"," ","",0,0,NA,"PARK_Maintenance_Region 3",109855.794433594,1301.21660297452,42.3186911,-71.0900749
"207",209,"Trotter School Playground","City of Boston","A97",3,"Roxbury",1.24398438,"Oppoiste 156 Humboldt Ave.","Open Space District","Parks, Playgrounds & Athletic Fields","BPRD"," ","X","X"," ","",0,0,NA,"PARK_Maintenance_Region 5",54188.9235839844,957.736516242624,42.3148714,-71.0885893
"208",210,"Crawford Street Playground","City of Boston","A97",3,"Roxbury",1.72194396,"Adjacent to 310 Walnut Ave.","Open Space District","Parks, Playgrounds & Athletic Fields","BPRD"," ","X","X"," ","",0,0,NA,"PARK_Maintenance_Region 5",111840.878662109,2109.8773775186,42.3152708,-71.0926746
"209",211,"Msgr. John Roussin Park","City of Boston","A97",3,"Roxbury",0.3170537,"345 Walnut Ave.","Open Space District","Parks, Playgrounds & Athletic Fields","BPRD"," ","X","X","Father Jack Play Area, Walnut Street Play Area","",0,0,NA,"PARK_Maintenance_Region 5",13926.2524414062,460.822956036245,42.3600825,-71.0588801
"210",212,"Flaherty Playground","City of Boston","A97",3,"Roxbury",1.31078198," ","Open Space District","Parks, Playgrounds & Athletic Fields","BPRD"," ","X","X","Cornwall","",0,0,NA,"PARK_Maintenance_Region 3",57098.6784667969,958.986436613373,42.3116492,-71.104559
"211",213,"Marcella Playground","City of Boston","A97",3,"Roxbury",5.08980387,"260 Highland Str.","Open Space District","Parks, Playgrounds & Athletic Fields","BPRD"," ","X","X"," ","",0,0,NA,"PARK_Maintenance_Region 5",221715.798583984,1831.12717689639,42.3228563,-71.0962028
"212",214,"Highland Park","City of Boston","A97",3,"Roxbury",3.63253278,"58 Beech Glen Str.","Open Space District","Parks, Playgrounds & Athletic Fields","BPRD"," ","X","X"," ","",0,0,NA,"PARK_Maintenance_Region 5",158235.940917969,1557.90123794739,42.3261495,-71.0928603
"213",215,"Cedar Square","City of Boston","A97",3,"Roxbury",0.62313931,"Opposite 20 Cedar Str.","Open Space District","Parks, Playgrounds & Athletic Fields","BPRD"," ","X","X"," "," ",0,0,NA,"PARK_Maintenance_Region 5",26816.5144042969,653.341810896801,42.3250313,-71.0893872
"218",220,"Quincy Street Play Area","City of Boston","A97",3,"Roxbury",0.53142047,"Opposite 70 Quincy Str.","Open Space District","Parks, Playgrounds & Athletic Fields","BPRD"," ","X","X"," ","",0,0,NA,"PARK_Maintenance_Region 5",23784.8303222656,619.223808164901,42.3147784,-71.0797686
"220",222,"Howes Playground","City of Boston","A97",3,"Roxbury",1.89," ","Open Space District","Parks, Playgrounds & Athletic Fields","BPRD"," ","X","X","Gertrude Howes Plgd"," ",0,0,NA,"PARK_Maintenance_Region 5",82441.0480957031,1206.92874442439,42.3242195,-71.078933
"221",223,"Little Scobie Playground","City of Boston","A97",3,"Roxbury",0.79435599,"Between Dunreath & Copeland Str.","Open Space District","Parks, Playgrounds & Athletic Fields","BPRD"," ","X","X"," ","",0,0,NA,"PARK_Maintenance_Region 5",34602.7629394531,802.406150744842,42.3226633,-71.0806971
"222",224,"Erie Ellington Playground","City of Boston","A97",3,"Roxbury",0.3743838,"Corner of Ellington and Erie","Open Space District","Parks, Playgrounds & Athletic Fields","BPRD"," ","X","X"," "," ",0,0,NA,"PARK_Maintenance_Region 2",16139.2153320312,584.743918684184,42.3014102,-71.0832969
"223",225,"Puddingstone Park","City of Boston","A97",3,"Roxbury",0.55,"Opposite 331 Seaver Str.","Open Space District","Parks, Playgrounds & Athletic Fields","BPRD"," ","X","X"," ","",0,0,NA,"PARK_Maintenance_Region 2",23879.1423339844,652.121914650714,42.3051894,-71.0836683
"224",226,"Bynoe Park","City of Boston","A97",3,"Roxbury",2.67,"Between Orchard Park & Adams St.","Open Space District","Parks, Playgrounds & Athletic Fields","BPRD"," ","X","X","Edna V. Bynoe Park; Orchard Park","",0,0,NA,"PARK_Maintenance_Region 5",116521.503662109,1417.62710578509,42.3600825,-71.0588801
"234",236,"Madison Park H.S. Athletic Fields","City of Boston"," ",3,"Roxbury",9.60564824,"55 R New Dudley Str.","Institutional District","Parks, Playgrounds & Athletic Fields","NULL","BPRD","N","X"," ","",0,0,NA,"PARK_Maintenance_Region 5",418429.454345703,2583.94626498729,42.3319323,-71.0908397
"235",237,"Nuestra Playground","BNAN","Land Trust",3,"Roxbury",0.23341849," ","Open Space District","Parks, Playgrounds & Athletic Fields","NULL"," ","N"," "," ","",0,0,NA,"INFO_Reallocation From Dept",10022.427734375,406.757008379904,42.3257874,-71.0754975
"236",238,"Dennis Street Park","City of Boston","A97/USH",3,"Roxbury",0.4160878,"138 Moreland Str.","Residential District","Parks, Playgrounds & Athletic Fields","BPRD"," ","X","X","Moreland Green","",0,0,NA,"PARK_Maintenance_Region 5",29863.6186523438,735.368627731929,42.3223337,-71.0748475
"237",239,"Holborn Street Playlot","City of Boston","A97/LWCF",3,"Roxbury",0.1,"6 Holborn Str.","Residential District","Parks, Playgrounds & Athletic Fields","BPRD"," ","X","X"," ","",0,0,NA,"PARK_Maintenance_Region 5",4519.35400390625,277.144531819118,42.3102596,-71.0739496
"239",241,"Christopher Lee Playground","City of Boston","A97",3,"South Boston",5.43798868," ","Residential District","Parks, Playgrounds & Athletic Fields","BPRD"," ","X","X","M Street Plgd","",0,0,NA,"PARK_Maintenance_Region 6",236882.998046875,2251.53433800654,42.3378353,-71.0308334
"243",245,"Flaherty Park","City of Boston","A97",3,"South Boston",0.2522215,"Opposite 133 B Str.","Open Space District","Parks, Playgrounds & Athletic Fields","BPRD"," ","X","X"," ","",0,0,NA,"PARK_Maintenance_Region 6",10978.1474609375,420.672461113561,42.3418535,-71.0530268
"244",246,"Buckley Playground","City of Boston","A97",3,"South Boston",0.65561916,"Opposite 209 West Third Str.","Open Space District","Parks, Playgrounds & Athletic Fields","BPRD"," ","X","X"," ","",0,0,NA,"PARK_Maintenance_Region 6",28291.423828125,766.880210091122,42.3392562,-71.0491268
"246",248,"Veterans Memorial Park","BHA"," ",3,"South Boston",0.20177296," ","Residential District","Parks, Playgrounds & Athletic Fields","NULL","BHA","N","X"," ","",0,0,NA,"INFO_Reallocation From Dept",29567.353515625,690.547858681299,42.3285819,-71.0865104
"247",249,"Ronan Park","City of Boston","A97",3,"Dorchester",11.27463098,"Opposite 65 Mt. Ida Road","Residential District","Parks, Playgrounds & Athletic Fields","BPRD"," ","X","X"," ","",0,0,NA,"PARK_Maintenance_Region 2",489640.900146484,3299.81232037168,42.304811,-71.0633606
"249",251,"Byrne Playground","City of Boston","A97",3,"Dorchester",1.26302622,"23 Everett Str.","Residential District","Parks, Playgrounds & Athletic Fields","BPRD"," ","X","X"," ","",0,0,NA,"PARK_Maintenance_Region 2",51774.0473632812,1032.82350053011,42.3009296,-71.0521911
"250",252,"Doherty Gibson Playground","City of Boston","A97",3,"Dorchester",5.72627282," ","Open Space District","Parks, Playgrounds & Athletic Fields","BPRD"," ","X","X","Townfield","",0,0,NA,"PARK_Maintenance_Region 2",249440.879882812,2054.53191453818,42.2974092,-71.0620338
"251",253,"Wellesley Park","City of Boston","A97",3,"Dorchester",0.71338629,"29 Wellesley Park","Residential District","Parks, Playgrounds & Athletic Fields","BPRD"," ","X","X"," ","",0,0,NA,"PARK_Maintenance_Region 2",31075.6608886719,922.117197121331,42.2962188,-71.0656652
"252",254,"McMorrow Playground","Commonwealth of Massachusetts","A97",3,"Dorchester",5.23186736," ","Industrial District","Parks, Playgrounds & Athletic Fields","DCR"," ","X","X"," ","",0,0,NA,"INFO_Reallocation From Dept",227904.194091797,2377.88674559507,42.2962269,-71.0516339
"253",255,"Hemenway Playground","City of Boston","A97",3,"Dorchester",4.39521048,"531 Adams Str.","Residential District","Parks, Playgrounds & Athletic Fields","BPRD"," ","X","X"," ","",0,0,NA,"PARK_Maintenance_Region 2",191458.771972656,1754.85959207447,42.2915205,-71.0562767
"254",256,"Rev. Loesch Family Park","City of Boston","A97",3,"Dorchester",2.25259606,"Opposite 21 Wainwright Str.","Residential District","Parks, Playgrounds & Athletic Fields","BPRD"," ","X","X","Cronin/Wainwright Park","",0,0,NA,"PARK_Maintenance_Region 2",98078.5544433594,1250.41788794732,42.2902183,-71.0663167
"256",258,"Walsh Playground","City of Boston","A97",3,"Dorchester",6.94564498,"Opposite 31 Clancy Road","Residential District","Parks, Playgrounds & Athletic Fields","BPRD"," ","X","X"," ","",0,0,NA,"PARK_Maintenance_Region 2",302557.67578125,2368.6903099322,42.2765505,-71.0704614
"258",260,"Dorchester Park","City of Boston","A97",3,"Dorchester",27.29735362,"1003 Adams Str.","Open Space District","Parks, Playgrounds & Athletic Fields","BPRD"," ","X","X"," ","",0,0,NA,"PARK_Maintenance_Region 2",1189093.86376953,6480.99575306627,42.2768497,-71.0635194
"260",262,"Toohig Playground","Commonwealth of Massachusetts","A97",3,"Dorchester",2.12423446," ","Residential District","Parks, Playgrounds & Athletic Fields","DCR"," ","X","X"," ","",0,0,NA,"INFO_Reallocation From Dept",92533.2980957031,1568.73248760386,42.3600825,-71.0588801
"261",263,"Martin Hilltop Playground","City of Boston","A97",3,"Dorchester",1.31193964,"101 Myrtlebank Ave.","Residential District","Parks, Playgrounds & Athletic Fields","BPRD"," ","X","X"," ","",0,0,NA,"PARK_Maintenance_Region 2",57233.6875,997.690052514964,42.3600825,-71.0588801
"266",268,"Mother's Rest at Four Corners","City of Boston","A97",3,"Dorchester",1.12453477," ","Residential District","Parks, Playgrounds & Athletic Fields","BPRD"," ","X","X"," ","",0,0,NA,"PARK_Maintenance_Region 2",49925.3754882812,1020.59963183234,42.2974547,-71.0718762
"267",269,"Ripley Playground","City of Boston","A97",3,"Dorchester",0.82672673,"Opposite 24 Ripley Road","Residential District","Parks, Playgrounds & Athletic Fields","BPRD"," ","X","X"," ","",0,0,NA,"PARK_Maintenance_Region 2",36854.8151855469,940.464336909915,42.2994313,-71.0760546
"268",270,"Garvey Playground","City of Boston","A97",3,"Dorchester",5.27312017,"Opposite 345 Neposet Ave.","Residential District","Parks, Playgrounds & Athletic Fields","BPRD"," ","X","X","William H. Garvey Playground","",0,0,NA,"PARK_Maintenance_Region 2",229295.844238281,1961.12610391336,42.2881745,-71.0456546
"270",272,"Ventura Playground","Commonwealth of Massachusetts","A97",3,"Dorchester",1.30990583," ","Open Space District","Parks, Playgrounds & Athletic Fields","DCR"," ","X","X"," ","",0,0,NA,"INFO_Reallocation From Dept",57060.5126953125,1193.68730170824,42.3600825,-71.0588801
"271",273,"Conley & Tenean Streets Park","Commonwealth of Massachusetts","A97",3,"Dorchester",0.50706674," ","Industrial District","Parks, Playgrounds & Athletic Fields","DCR"," ","X","X"," ","",0,0,NA,"INFO_Reallocation From Dept",22088.2194824219,724.430337494891,42.3600825,-71.0588801
"272",274,"Norton Street Playground","BRA"," ",3,"Dorchester",0.06590689," ","Residential District","Parks, Playgrounds & Athletic Fields","NULL"," ","N","X"," ","",0,0,NA,"PARK_Maintenance_Ground Maintenance",2957.49487304688,228.763547182039,42.3065098,-71.0694156
"276",278,"YMCA Community Park","Private"," ",3,"Dorchester",1.02749317," ","Residential District","Parks, Playgrounds & Athletic Fields","NULL"," ","N","X"," ","",0,0,NA,"PARK_Maintenance_Ground Maintenance",44758.3979492188,1170.51164986391,42.2569999,-71.1204862
"287",289,"Hayes Park","City of Boston","A97",3,"South End",0.28368006,"Opposite 178 West Canton Str.","Residential District","Parks, Playgrounds & Athletic Fields","BPRD"," ","X","X"," ","",0,0,NA,"PARK_Maintenance_Region 6",11986.6333007812,438.110833434821,42.3437608,-71.0754975
"288",290,"Union Park","City of Boston","A97",3,"South End",0.37347945,"24 Union Park","Residential District","Parks, Playgrounds & Athletic Fields","BPRD"," ","X","X"," ","",0,0,NA,"PARK_Maintenance_Region 6",16269.0524902344,730.760914716059,42.3429554,-71.0717352
"289",291,"Peters Park II","BRA","",3,"South End",0.42185015,"230 Shawmut Ave.","Residential District","Parks, Playgrounds & Athletic Fields","NULL","BPRD","N","X"," "," ",0,0,NA,"INFO_Reallocation From Dept",22088.9943847656,1330.0519026963,42.3429565,-71.0675046
"290",292,"Peters Park I","City of Boston","A97",3,"South End",3.39506058,"230 Shawmut Ave.","Residential District","Parks, Playgrounds & Athletic Fields","BPRD"," ","X","X"," "," ",0,0,NA,"PARK_Maintenance_Region 6",144907.222167969,1789.60420587127,42.3429565,-71.0675046
"291",293,"Rotch Playground","City of Boston","A97",3,"South End",2.74585015,"30 Randolph Str.","Industrial District","Parks, Playgrounds & Athletic Fields","BPRD"," ","X","X"," ","",0,0,NA,"PARK_Maintenance_Region 6",119611.359375,1412.8497745263,42.3417682,-71.0642623
"292",294,"Ringgold Park","City of Boston","A97",3,"South End",0.38043644,"10 Ringgold Str.","Residential District","Parks, Playgrounds & Athletic Fields","BPRD"," ","X","X","Hanson St. Play Area, Ringgold St. Play Area"," ",0,0,NA,"PARK_Maintenance_Region 6",19405.7983398438,603.736020875378,42.3432577,-71.0701585
"297",299,"Carter Playground","City of Boston","A97",3,"South End",4.91455022,"627 Columbus Ave","Open Space District","Parks, Playgrounds & Athletic Fields","BPRD"," ","X","X"," ","",0,0,NA,"PARK_Maintenance_Region 6",214081.612548828,2132.06966830621,42.3387834,-71.0850611
"298",300,"Titus Sparrow Park","City of Boston","A97",3,"South End",1.7513453,"75 West Rutland Sq.","Residential District","Parks, Playgrounds & Athletic Fields","BPRD"," ","X","X"," ","",0,0,NA,"PARK_Maintenance_Region 6",78354.8400878906,1450.63185313862,42.3434613,-71.0789651
"305",307,"Ramsay Park","City of Boston","A97",3,"South End",5.49340772,"1917 Washington Str.","Open Space District","Parks, Playgrounds & Athletic Fields","BPRD"," ","X","X"," ","",0,0,NA,"PARK_Maintenance_Region 6",239297.094238281,2040.89134576896,42.3344581,-71.0806043
"316",318,"Msgr. Reynolds Playground","City of Boston","A97",3,"South End",0.30609673,"Corner of Wash. & Msgr. Reynolds","Residential District","Parks, Playgrounds & Athletic Fields","BPRD"," ","X","X"," ","",0,0,NA,"PARK_Maintenance_Region 6",13978.6530761719,468.044050747987,42.3404117,-71.0706692
"318",320,"Hiscock Park","City of Boston","A97",3,"South End",0.10572969," ","Residential District","Parks, Playgrounds & Athletic Fields","BPRD"," ","X","X"," ","",0,0,NA,"PARK_Maintenance_Region 6",4605.66723632812,288.917773384004,42.3427127,-71.0781669
"319",321,"Billings Field","City of Boston","A97",3,"West Roxbury",10.77506733,"369 LaGrange Str.","Open Space District","Parks, Playgrounds & Athletic Fields","BPRD"," ","X","X"," ","",0,0,NA,"PARK_Maintenance_Region 4",469370.27722168,2795.86270953861,42.281124,-71.1564661
"331",333,"Draper Playground","City of Boston","A97",3,"West Roxbury",5.79121761,"68 Stimpson Str.","Open Space District","Parks, Playgrounds & Athletic Fields","BPRD"," ","X","X"," ","",0,0,NA,"PARK_Maintenance_Region 4",252269.923828125,2274.52071878554,42.2601001,-71.160819
"340",342,"Praught Bunker Fields","Private","A97",3,"West Roxbury",4.91796284," ","Open Space District","Parks, Playgrounds & Athletic Fields","NULL"," ","N"," "," ","",0,0,NA,"INFO_Reallocation From Dept",214230.269897461,2072.02846059935,42.2800418,-71.1668229
"341",343,"West Roxbury H.S. Athletic Fields","City of Boston"," ",3,"West Roxbury",13.42,"Off VFW Pkwy","Institutional District","Parks, Playgrounds & Athletic Fields","NULL","BPRD","N","X"," ","",0,0,NA,"PARK_Maintenance_Region 4",584754.097290039,4350.46898389438,42.2817899,-71.1764144
"342",344,"Catholic Memorial H.S. Athltc Fld","Private"," ",3,"West Roxbury",7.26006285," ","Institutional District","Parks, Playgrounds & Athletic Fields","NULL"," ","N"," "," ","",0,0,NA,"INFO_Reallocation From Dept",316253.999267578,2609.8191706012,42.2776416,-71.1660234
"345",347,"Mason Schoolyard","City of Boston"," ",3,"Roxbury",0.38047679," ","Industrial District","Parks, Playgrounds & Athletic Fields","NULL"," ","N","X"," ","",0,0,NA,"INFO_Reallocation From Dept",16573.8637695312,774.322147766952,42.3259522,-71.0714584
"346",348,"Boys Club Park","Private"," ",3,"Roxbury",0.81512514," ","Commercial/Office/Business District","Parks, Playgrounds & Athletic Fields","NULL"," ","N","X"," ","",0,0,NA,"INFO_Reallocation From Dept",35507.4819335938,738.135661898197,42.3269529,-71.084504
"347",349,"UMass Boston Athletic Fields","Commonwealth of Massachusetts"," ",3,"Dorchester",18.4677814," ","Industrial District","Parks, Playgrounds & Athletic Fields","NULL"," ","N"," "," ","",0,0,NA,"INFO_Reallocation From Dept",429393.071289062,4541.06620790688,42.3148413,-71.0367377
"348",350,"Claymont Terrace","Private"," ",3,"Dorchester",0.60573728," ","Residential District","Parks, Playgrounds & Athletic Fields","NULL"," ","N"," "," ","",0,0,NA,"INFO_Reallocation From Dept",26386.3854980469,712.904108823591,42.2931981,-71.0527753
"349",351,"Lucy Stone Schoolyard","City of Boston"," ",3,"Dorchester",0.78345732," ","Commercial/Office/Business District","Parks, Playgrounds & Athletic Fields","NULL"," ","N","X"," ","",0,0,NA,"INFO_Reallocation From Dept",34128.0070800781,1512.69107863653,42.2954005,-71.0715977
"351",353,"Ramler Park","City of Boston","A97",3,"Fenway/Kenmore",0.51,"124 Peterborough Str.","Institutional District","Parks, Playgrounds & Athletic Fields","BPRD"," ","X","X","Dorothy and David Ramler Park","",0,0,NA,"PARK_Maintenance_Region 3",22040.0981445312,604.725552000958,42.3425691,-71.1007045
"354",356,"Richmond & North Streets Park I","MassDOT","BPRD License",3,"Central Boston",0.09," ","Residential District","Parks, Playgrounds & Athletic Fields","NULL","BPRD","N","X","Richmond Street Play Area","",0,0,NA,"INFO_Reallocation From Dept",4137.63403320312,450.998622451872,42.3600825,-71.0588801
"360",362,"Penniman Road Play Area","City of Boston","A97",3,"Allston-Brighton",0.7600167,"25 Penniman Road","Open Space District","Parks, Playgrounds & Athletic Fields","BPRD"," ","X","X","Penniman-Hano Play Area","",0,0,NA,"PARK_Maintenance_Region 4",40176.2612304688,973.852337609695,42.3552734,-71.1369605
"361",363,"O'Day Playground","City of Boston","A97",3,"South End",0.71765517,"West Newton, San Juan, & Aquadilla Sts.","Open Space District","Parks, Playgrounds & Athletic Fields","BPRD"," ","X","X"," ","",0,0,NA,"PARK_Maintenance_Region 6",31261.615234375,713.823213475785,42.3407587,-71.0753118
"364",366,"Martin's Park","City of Boston","A97/Ch91/WPA",3,"South Boston",0.85,"64 Sleeper St","Industrial District","Parks, Playgrounds & Athletic Fields","BPRD","Private","X","X"," ","",0,0,NA,"INFO_Reallocation From Dept",36917.0090332031,882.52373156341,42.3525357,-71.0494982
"371",373,"Pagoda Park","MassDOT"," ",3,"Central Boston",0.34,"Opposite 144 Kneeland Str.","Special District","Parks, Playgrounds & Athletic Fields","NULL"," ","N","X"," ","",0,0,NA,"PARK_Maintenance_Region 1",14674.0639648438,471.632837897077,42.3549544,-71.0654886
"376",378,"Veterans Park I","MassDOT"," ",3,"East Boston",0.37,"Corner of Decatur and London Sts","Open Space District","Parks, Playgrounds & Athletic Fields","NULL"," ","N","X","London & Decatur Sts Park I","",0,0,NA,"INFO_Reallocation From Dept",16020.3803710938,618.905630639902,42.328373,-71.0562767
"377",379,"Veterans Park II","City of Boston","A97",3,"East Boston",0.2,"76-84 London Street","Open Space District","Parks, Playgrounds & Athletic Fields","BPRD"," ","X","X","London & Decatur St Park II","",0,0,NA,"INFO_Reallocation From Dept",8662.45336914062,376.583680585733,42.3723876,-71.0405838
"378",380,"Decatur & Meridian Streets Park","MassDOT"," ",3,"East Boston",0.2," ","Open Space District","Parks, Playgrounds & Athletic Fields","NULL"," ","N","X"," ","",0,0,NA,"PARK_Maintenance_Ground Maintenance",8877.37475585938,616.352613055181,42.3600825,-71.0588801
"379",381,"East Boston Piers Park","Massport"," ",3,"East Boston",6.79," ","Open Space District","Parks, Playgrounds & Athletic Fields","Commonwealth of Massachusetts","Massport","N","X","Piers Park","Massport",0,0,NA,"INFO_Reallocation From Dept",295804.528808594,3637.08968559851,42.3649297,-71.0362458
"381",383,"Caldwell Street Play Area","City of Boston","A97",3,"Charlestown",0.11285785,"Adjacent to 13 Caldwell","Industrial District","Parks, Playgrounds & Athletic Fields","BPRD"," ","X","X"," ","",0,0,NA,"PARK_Maintenance_Region 1",5554.73754882812,305.966730013355,42.3507371,-71.137796
"384",386,"Stonehill Park","City of Boston","A97",3,"Hyde Park",0.31754052,"2-16 Raldne St.","Residential District","Parks, Playgrounds & Athletic Fields","BPRD"," ","X","X","Coast Guard Park","",0,0,NA,"PARK_Maintenance_Region 4",15923.8787841797,555.378646591979,42.2547316,-71.1410453
"390",392,"Parkman Memorial","City of Boston","A97/GPOD",3,"Jamaica Plain",6.70969084,"Perkins Str.","Open Space District","Parks, Playgrounds & Athletic Fields","BPRD","BPRD","X","X"," ","",0,0,NA,"PARK_Maintenance_Region 3",292279.328857422,4863.35864672405,42.3181537,-71.1244273
"399",402,"Reservation Road Park","City of Boston","A97/WPA",3,"Hyde Park",6.19562996,"151 Res. Road","Industrial District","Parks, Playgrounds & Athletic Fields","BCC","BPRD","X","X","Mother Brook II","",0,0,NA,"PARK_Maintenance_Region 4",406309.255126953,4770.62201734445,42.2505057,-71.1288836
"400",403,"Colella Playground","Commonwealth of Massachusetts","A97",3,"Hyde Park",0.68814713," ","Commercial/Office/Business District","Parks, Playgrounds & Athletic Fields","DCR"," ","X","X"," ","",0,0,NA,"INFO_Reallocation From Dept",29976.2221679688,712.736700161234,42.2448513,-71.1350109
"402",405,"Dooley Playground","Commonwealth of Massachusetts","A97",3,"Hyde Park",0.44495663," ","Residential District","Parks, Playgrounds & Athletic Fields","DCR"," ","X","X"," ","",0,0,NA,"INFO_Reallocation From Dept",23331.87109375,650.894704184524,42.2542218,-71.1345467
"404",407,"Patrick J. Kelly Park","Private"," ",3,"Charlestown",0.14062231," ","Residential District","Parks, Playgrounds & Athletic Fields","NULL"," ","N"," "," ","",0,0,NA,"PARK_Maintenance_Region 1",10964.1762695312,553.926990489645,42.3755446,-71.0575303
"416",419,"White Stadium","City of Boston","A97",3,"Roxbury",12.57331008," ","Open Space District","Parks, Playgrounds & Athletic Fields","George Robert White Fund","BPS","X","X"," ","",0,0,NA,"INFO_Reallocation From Dept",547703.124511719,2960.77648429408,42.3097446,-71.095909
"420",423,"Millennium Park I","City of Boston","SURF/WPA",3,"West Roxbury",91.65,"300 Gardner Str.","Open Space District","Parks, Playgrounds & Athletic Fields","NULL","BPRD","X","X","Gardner Street Park","",0,0,NA,"PARK_Maintenance_Region 4",3992302.13256836,9539.99727802337,42.2818424,-71.1819841
"421",424,"South Street Mall & Courts","City of Boston","A97",3,"Jamaica Plain",0.08138799,"South & Child Sts","Open Space District","Parks, Playgrounds & Athletic Fields","BPRD","BPRD","X","X"," ","BPRD",0,0,NA,"INFO_Reallocation From Dept",18660.533203125,548.881867972821,42.3600825,-71.0588801
"423",426,"Golden Stairs Terrace Park I","City of Boston","A97",3,"East Boston",0.17," ","Residential District","Parks, Playgrounds & Athletic Fields","BCC","BPRD","X","X","Terrace Park","",0,0,NA,"PARK_Maintenance_Region 1",7426.33569335938,348.861517761875,42.3648933,-71.0340836
"426",429,"Roxbury Heritage State Park II","City of Boston","",3,"Roxbury",0.35," ","Institutional District","Parks, Playgrounds & Athletic Fields","NULL","DCR","N","X","Dillaway Thomas House","",0,0,NA,"INFO_Reallocation From Dept",15127.5417480469,496.803878790731,42.3304235,-71.0904653
"428",431,"Nellie Miranda Memorial Park","City of Boston","A97",3,"Dorchester",0.09," ","Residential District","Parks, Playgrounds & Athletic Fields","BPRD","BPRD","X","X"," ","BPRD",0,0,NA,"PARK_Maintenance_Ground Maintenance",3806.54956054688,252.110161877906,42.3600825,-71.0588801
"437",440,"Ohrenberger Recreation Complex","City of Boston"," ",3,"West Roxbury",3.79797555," ","Residential District","Parks, Playgrounds & Athletic Fields","NULL"," ","N","X"," ","",0,0,NA,"INFO_Reallocation From Dept",165442.743774414,3302.85231900789,42.3600825,-71.0588801
"438",441,"Boston University Ball Diamond","Private"," ",3,"Allston-Brighton",1.67668525," ","Institutional District","Parks, Playgrounds & Athletic Fields","NULL"," ","N"," ","Ashford Str. Field","",0,0,NA,"INFO_Reallocation From Dept",73037.7084960938,1076.74217709842,42.3504997,-71.1053991
"445",448,"Little Mystic Access Area","BRA","A97/LWCFCh91/WP",3,"Charlestown",2.07," ","Special District","Parks, Playgrounds & Athletic Fields","NULL"," ","X"," "," ","",0,0,NA,"INFO_Reallocation From Dept",89985.6005859375,2090.81843380031,42.3815264,-71.0562767
"446",449,"Corey Street Court","BHA"," ",3,"Charlestown",0.17552117," ","Residential District","Parks, Playgrounds & Athletic Fields","NULL","BHA","N","X"," ","",0,0,NA,"INFO_Reallocation From Dept",7645.83813476562,363.766115822764,42.2924348,-71.1615123
"447",451,"Moakley Park","City of Boston","A97",3,"South Boston",58.77242512,"1187 Columbia Road","Open Space District","Parks, Playgrounds & Athletic Fields","BPRD"," ","X","X","Joe Moakley Park;  Joseph Moakley Park; Columbus Park","",0,0,NA,"PARK_Maintenance_Region 6",2560172.35229492,7177.03619437914,42.3256817,-71.0498714
"457",461,"Frederick Douglass Green","Private"," ",3,"South End",0.92205578," ","Special District","Parks, Playgrounds & Athletic Fields","NULL"," ","N"," "," ","",0,0,NA,"INFO_Reallocation From Dept",40165.4638671875,819.110207634822,42.3386419,-71.0829255
"469",473,"Suffolk Downs Infield","Private","WPA/ACEC/Ch91",3,"East Boston",28.37534005," ","Industrial District","Parks, Playgrounds & Athletic Fields","NULL"," ","N"," "," ","",0,0,NA,"INFO_Reallocation From Dept",1221235.54833984,4571.87966917549,42.3945758,-71.0104991
"470",474,"Allandale Field","Private","A97/Deed Restrt",3,"West Roxbury",2.63," ","Conservation Protection Subdistrict","Parks, Playgrounds & Athletic Fields","BPRD","Private+BPRD","X","X","Annunciation Field","",0,0,NA,"INFO_Reallocation From Dept",114404.621582031,1383.38665090421,42.30226,-71.139151
"476",480,"Harvard Tract I","Private","100/GPOD",3,"Jamaica Plain",5.03376834," ","Conservation Protection Subdistrict","Parks, Playgrounds & Athletic Fields","NULL","Private","N","X","Dana Greenhouses (Arnold Arboretum)","",0,0,NA,"INFO_Reallocation From Dept",222467.833251953,2195.5998950288,42.3676407,-71.1258235
"477",481,"Harvard Tract III","Private","100",3,"Jamaica Plain",1.45477498," ","Open Space District","Parks, Playgrounds & Athletic Fields","NULL","Private","N","X","Center Street Tract (Arnold Arboretum)","",0,0,NA,"INFO_Reallocation From Dept",64261.5815429688,1483.85667251018,42.3676407,-71.1258235
"478",482,"Harvard Tract II","Private","100/GPOD",3,"Jamaica Plain",5.26425599," ","Residential District","Parks, Playgrounds & Athletic Fields","NULL","Private","N","X","Bussey Homestead (Arnold Arboretum)","",0,0,NA,"INFO_Reallocation From Dept",207117.852539062,1923.70219826082,42.3676407,-71.1258235
"496",500,"McCormack School Ball Field","City of Boston"," ",3,"Dorchester",1.4," ","Residential District","Parks, Playgrounds & Athletic Fields","NULL"," ","N","X"," ","",0,0,NA,"INFO_Reallocation From Dept",61100.2260742188,985.143697907409,42.3183828,-71.0447624
"497",501,"Boston College HS Athletic Fields","Private"," ",3,"Dorchester",19.53," ","Residential District","Parks, Playgrounds & Athletic Fields","NULL"," ","N"," "," ","",0,0,NA,"INFO_Reallocation From Dept",807846.774658203,4155.80044521113,42.3162356,-71.0454645
"502",506,"Franklin Park Zoo","City of Boston","A97",3,"Roxbury",63.82," ","Open Space District","Parks, Playgrounds & Athletic Fields","DCR","Zoo New England","X","X","Zoo New England","DCR",0,0,NA,"INFO_Reallocation From Dept",2780051.57861328,7641.83741155106,42.302786,-71.08681
"503",507,"Newland Street Park","City of Boston"," ",3,"South End",0.13833095," ","Open Space District","Parks, Playgrounds & Athletic Fields","NULL","Private","N","X"," ","DND",0,0,NA,"INFO_Reallocation From Dept",6682.0986328125,357.034596523486,42.3391019,-71.0759385
"505",509,"Zero Quinn Way","City of Boston","A97",3,"West Roxbury",0.03197035," ","Commercial/Office/Business District","Parks, Playgrounds & Athletic Fields","BPRD"," ","X","X"," ","",0,0,NA,"INFO_Reallocation From Dept",1395.0869140625,181.969756499311,42.2828192,-71.1567219
"506",510,"Harvard Business School Athltc Flds","Private"," ",3,"Allston-Brighton",0.56528814," ","Institutional District","Parks, Playgrounds & Athletic Fields","NULL"," ","N"," "," ","",0,0,NA,"INFO_Reallocation From Dept",24624.4191894531,671.410409046268,42.3655147,-71.1221412
"507",511,"Bromley Heath Play Area","City of Boston"," ",3,"Jamaica Plain",0.82120332," ","Residential District","Parks, Playgrounds & Athletic Fields","NULL"," ","N","X"," ","",0,0,NA,"INFO_Reallocation From Dept",35772.2409667969,1206.1912772222,42.3252381,-71.1023307
"508",512,"Fenelon Street Playground","City of Boston","A97",3,"Roxbury",0.19," ","Residential District","Parks, Playgrounds & Athletic Fields","BPRD"," ","X","X"," ","",0,0,NA,"PARK_Maintenance_Ground Maintenance",8380.89672851562,388.483560844976,42.3102596,-71.0739496
"509",513,"Oak Terrace Playlot","Private"," ",3,"Central Boston",0.0309362," ","Special District","Parks, Playgrounds & Athletic Fields","NULL"," ","N"," "," ","",0,0,NA,"INFO_Reallocation From Dept",1347.607421875,147.284300842407,42.3480693,-71.0640023
"510",514,"Stanley Bellevue Park","City of Boston","A97",3,"Dorchester",0.35177328,"23 Bellevue St","Residential District","Parks, Playgrounds & Athletic Fields","BPRD"," ","X","X"," ","",0,0,NA,"PARK_Maintenance_Region 2",15599.3312988281,546.333349079749,42.3112637,-71.0678836
"512",516,"St Helena's Park","City of Boston","A97",3,"South End",0.17301401," ","Open Space District","Parks, Playgrounds & Athletic Fields","BPRD"," ","X","X"," ","",0,0,NA,"PARK_Maintenance_Region 6",7614.23583984375,352.523984783309,42.3400746,-71.066955
"513",517,"Theresa Hynes Park","Private","A97/CR",3,"Allston-Brighton",0.45342376," ","Residential District","Parks, Playgrounds & Athletic Fields","BCC"," ","X","X"," ","",0,0,NA,"INFO_Reallocation From Dept",19434.0368652344,774.519113448049,42.3442647,-71.1545528
"515",519,"Eastport Park","Massport"," ",3,"South Boston",1.15,"2 Seaport Lane","Special District","Parks, Playgrounds & Athletic Fields","NULL"," ","N","X"," ","",0,0,NA,"INFO_Reallocation From Dept",50106.0930175781,1156.19210113303,42.3487207,-71.0402124
"516",520,"South Boston Maritime Park","Massport","Ch 91",3,"South Boston",0.88,"Btwn Congress St, D St Extension & Northern Ave","Industrial District","Parks, Playgrounds & Athletic Fields","NULL"," ","N","X"," ","",0,0,NA,"INFO_Reallocation From Dept",38184.1540527344,956.387382925523,42.3486838,-71.0395623
"517",521,"Ernst Chery Jr. Playground","City of Boston","A97",3,"Mattapan",0.25," ","Residential District","Parks, Playgrounds & Athletic Fields","BPRD","BPRD","X","X","Orlando Street Playground","BPRD",0,0,NA,"PARK_Maintenance_Region 2",10190.5080566406,406.765878978043,42.274262,-71.0991275
"519",523,"North Point Park","Commonwealth of Massachusetts","A97/WPA/Ch91",3,"Central Boston",1.77174555," ","Special District","Parks, Playgrounds & Athletic Fields","DCR"," ","X","X"," ","",0,0,NA,"INFO_Reallocation From Dept",101981.994384766,1503.94223438362,42.369016,-71.0690224
"520",524,"Bremen Street Park I","Massport","A97",3,"East Boston",17.79," ","Special District","Parks, Playgrounds & Athletic Fields","Massport","Massport","X","X","Sartori Stadium, East Boston Memorial Stadium","Massport",0,0,NA,"INFO_Reallocation From Dept",774851.827880859,8371.50571649397,42.3751272,-71.0309618
"568",572,"McGann Park","City of Boston","A97",3,"Roslindale",0.88,"420 West Str.","Residential District","Parks, Playgrounds & Athletic Fields","BPRD"," ","X","X"," ","",0,0,NA,"PARK_Maintenance_Ground Maintenance",38368.0754394531,912.454840740931,42.2642624,-71.1273663
"577",582,"Franklin Park II","City of Boston","A97/Lease",3,"Roxbury",16.44," ","Open Space District","Parks, Playgrounds & Athletic Fields","DCR","Zoo New England","X","X","""Sausage Lot""","DCR",0,0,NA,"INFO_Reallocation From Dept",716128.204589844,5477.2876372156,42.3030738,-71.0868152
"579",584,"O'Reilly Way Court","BHA"," ",3,"Charlestown",0.53," ","Residential District","Parks, Playgrounds & Athletic Fields","NULL","BHA","N","X"," ","",0,0,NA,"INFO_Reallocation From Dept",23037.267578125,768.425595411645,42.378541,-71.0600838
"581",586,"South Shore Plaza Courts","Private","WPA/Ch91",3,"East Boston",0.23," ","Special District","Parks, Playgrounds & Athletic Fields","NULL"," ","N"," "," ","",0,0,NA,"INFO_Reallocation From Dept",10181.2375488281,403.671116346972,42.2219952,-71.0237679
"583",588,"West End Recreation Complex","Private"," ",3,"Central Boston",3.42," ","Residential District","Parks, Playgrounds & Athletic Fields","NULL"," ","N"," "," ","",0,0,NA,"INFO_Reallocation From Dept",149003.332275391,2290.24107898809,42.3218774,-71.0906502
"586",591,"Brian Honan Park","Private","A97/CR",3,"Allston-Brighton",0.45,"Allston Street","Residential District","Parks, Playgrounds & Athletic Fields","BCC","Private","X","X"," ","",0,0,NA,"INFO_Reallocation From Dept",41975.0708007812,1141.82149610314,42.3445218,-71.140117
"591",596,"East Boston Social Centers Playlot","Private"," ",3,"East Boston",0.33," ","Residential District","Parks, Playgrounds & Athletic Fields","NULL"," ","N"," "," ","",0,0,NA,"INFO_Reallocation From Dept",14764.4235839844,486.495728296478,42.3655297,-71.0325978
"592",597,"Oxford Place Plaza","Private"," ",3,"Central Boston",0.05," ","Special District","Malls, Squares & Plazas","NULL"," ","N","X"," ","",0,0,NA,"INFO_Reallocation From Dept",2039.81176757812,178.74041429616,42.3520198,-71.0610512
"596",601,"Mattahunt Schoolyard","City of Boston"," ",3,"Mattapan",3.31," ","Residential District","Parks, Playgrounds & Athletic Fields","NULL","BPS","N","X"," ","BPS",0,0,NA,"INFO_Reallocation From Dept",143364.266357422,2528.80734496431,42.2763126,-71.1033928
"601",606,"Melvinside Play Area","Private"," ",3,"Dorchester",0.4," ","Residential District","Parks, Playgrounds & Athletic Fields","NULL"," ","N"," "," ","",0,0,NA,"INFO_Reallocation From Dept",17476.1357421875,814.954326342683,42.3121723,-71.0584124
"605",610,"Franklin Field BHA Green","City of Boston"," ",3,"Mattapan",0.7," ","Residential District","Parks, Playgrounds & Athletic Fields","NULL"," ","N","X"," ","",0,0,NA,"PARK_Maintenance_Ground Maintenance",30634.5209960938,863.978412842916,42.2901003,-71.0849682
"606",611,"Franklin Field BHA Playground","City of Boston"," ",3,"Mattapan",0.39," ","Residential District","Parks, Playgrounds & Athletic Fields","NULL"," ","N","X"," ","",0,0,NA,"INFO_Reallocation From Dept",17021.6320800781,592.290923985445,42.2903317,-71.0871966
"607",612,"ELC Playlot","City of Boston"," ",3,"Roxbury",0.45," ","Residential District","Parks, Playgrounds & Athletic Fields","NULL"," ","N"," "," ","",0,0,NA,"INFO_Reallocation From Dept",19494.5639648438,562.619732256206,42.3152777,-71.0792115
"612",617,"Bessie Barnes Park","Community Group/Nonprofit","Land Trust",3,"South End",0.1," ","Residential District","Parks, Playgrounds & Athletic Fields","BNAN"," ","N"," "," ","",0,0,NA,"INFO_Reallocation From Dept",4398.55200195312,267.182415540545,42.3360548,-71.0840861
"615",620,"Carter School Grounds","City of Boston"," ",3,"South End",0.49," ","Residential District","Parks, Playgrounds & Athletic Fields","NULL"," ","N"," "," ","",0,0,NA,"INFO_Reallocation From Dept",21284.5095214844,1052.44039805116,42.3405056,-71.0836622
"625",630,"59 Crawford Street Playground","Private","Land Trust",3,"Roxbury",0.24748528," ","Residential District","Parks, Playgrounds & Athletic Fields","NULL"," ","N"," ","","",0,0,NA,"INFO_Reallocation From Dept",10780.4465332031,431.063986416894,42.3228563,-71.0962028
"630",635,"Beethoven School Play Area","City of Boston","A97",3,"West Roxbury",0.52," ","Residential District","Parks, Playgrounds & Athletic Fields","BPRD"," ","X","X"," ","",0,0,NA,"PARK_Maintenance_Region 4",22852.0168457031,762.397365983542,42.2636449,-71.1549705
"634",640,"Almont Park II","City of Boston"," ",3,"Mattapan",0.15," ","Open Space & Residential Districts","Parks, Playgrounds & Athletic Fields","NULL","BPRD","N","X","Hunt Playground","PWD",0,0,NA,"PARK_Maintenance_Ground Maintenance",8118.84326171875,598.070865464245,42.2742287,-71.0969496
"645",651,"Southwest Corridor Park Extension","BHA"," ",3,"Roxbury",0.17754467,"31-81 Prentiss St","Residential District","Parks, Playgrounds & Athletic Fields","NULL","BHA","N","X"," ","",0,0,NA,"INFO_Reallocation From Dept",7733.84326171875,638.631056297822,42.3263392,-71.0990659
"654",660,"Malcolm X Park II","City of Boston"," ",3,"Roxbury",0.19,"Paulding Street","Open Space District","Parks, Playgrounds & Athletic Fields","NULL","BPRD","N","X","Washington Park","",0,0,NA,"PARK_Maintenance_Ground Maintenance",8229.14086914062,778.216702454554,42.3213559,-71.0891464
"656",662,"East Boston Memorial Park II","Massport","CAT Mit",3,"East Boston",3.06," ","Open Space District","Parks, Playgrounds & Athletic Fields","NULL","","N","X"," ","",0,0,NA,"INFO_Reallocation From Dept",133420.787841797,5499.07476276424,42.3720445,-71.0312049
"657",663,"East Boston Memorial Park III","Commonwealth of Massachusetts","CAT Mit",3,"East Boston",2.01," ","Open Space District","Parks, Playgrounds & Athletic Fields","NULL","","N","X"," ","",0,0,NA,"INFO_Reallocation From Dept",87771.3178710938,2643.43110473054,42.3720445,-71.0312049
"658",664,"Bremen Street Park II","Massport","CAT Mit",3,"East Boston",0.01," ","Industrial District","Parks, Playgrounds & Athletic Fields","NULL","Massport","N","X"," ","",0,0,NA,"INFO_Reallocation From Dept",424.158447265625,84.2252775062007,42.3780709,-71.0260975
"668",674,"Richmond & North Streets Park II","MassDOT"," ",3,"Central Boston",0.28,"201 North Street","Residential District","Parks, Playgrounds & Athletic Fields","NULL"," ","N"," "," ","",0,0,NA,"PARK_Maintenance_Region 1",12130.3276367188,1123.97782275858,42.3600825,-71.0588801
"675",681,"Shirley Eustis House Grounds","Private"," ",3,"Roxbury",1.3,"33 Shirley Street","Residential District","Parks, Playgrounds & Athletic Fields","NULL"," ","N","X"," ","",0,0,NA,"INFO_Reallocation From Dept",56708.72265625,2170.59029956895,42.323579,-71.071831
"676",682,"Recuperative Center Lawn","Private"," ",3,"West Roxbury",0.31,"1251 Centre Street","Conservation Protection Subdistrict","Parks, Playgrounds & Athletic Fields","NULL"," ","N"," "," ","",0,0,NA,"INFO_Reallocation From Dept",13526.1245117188,475.491213607098,42.297274,-71.1323186
"688",694,"Back Bay Fens","City of Boston","A97/NRHP/WPA",3,"Fenway/Kenmore",70.1,"Bounded by Beacon St, Park Drive, The Fenway, Evans Way, Forsyth Way, Westland Ave","Residential District","Parks, Playgrounds & Athletic Fields","BPRD","BPRD","X","X","Includes Evans Way Park, Forsyth Park, Westland Avenue Gates","",0,0,NA,"PARK_Maintenance_Region 3",3053367.00219727,22839.9804342682,42.3434795,-71.094564
"689",695,"Riverway I","City of Boston","A97/NRHP/GPOD",3,"Fenway/Kenmore",17.18,"440 Park Drive","Institutional District","Parks, Playgrounds & Athletic Fields","BPRD","BPRD","X","X","contains Back Bay Yard, ""Sears Lot"" aka ""Sears Rotary""","",0,0,NA,"PARK_Maintenance_Region 3",748570.330810547,8745.03520291429,42.3366975,-71.1103371
"690",696,"Riverway III","City of Boston","A97/NRHP/GPOD",3,"Jamaica Plain",5.3,"W side of Riverway parkway, btwn Netherlands & on ramp  nr Brookline Ice & Coal","Residential District","Parks, Playgrounds & Athletic Fields","BPRD","BPRD","X","X"," ","",0,0,NA,"PARK_Maintenance_Ground Maintenance",230726.903808594,4197.0859092439,42.3401701,-71.1092281
"692",698,"Jamaica Pond Park","City of Boston","A97",3,"Jamaica Plain",97.74,"507 Jamaica Way","Open Space District","Parks, Playgrounds & Athletic Fields","BPRD","BPRD","X","X","Pine Bank","",0,0,NA,"PARK_Maintenance_Region 3",4257189.26000977,8048.49742934009,42.315757,-71.117527
"693",699,"Condor Street Beach II","City of Boston"," ",3,"East Boston",0.2,"Condor Street, Adj to Dist 9 Public Works Yard","Industrial District","Parks, Playgrounds & Athletic Fields","NULL","BPRD","N","X"," ","",0,0,NA,"PARK_Maintenance_Ground Maintenance",8875.08325195312,1551.50346783703,42.3823953,-71.035721
"695",701,"Kennedy Family Service Center Park","Private"," ",3,"Charlestown",0.11,"29 Vine Street","Residential District","Parks, Playgrounds & Athletic Fields","NULL"," ","N","X","Vine-Moulton Park","",0,0,NA,"INFO_Reallocation From Dept",4763.56640625,285.493041086928,42.3765511,-71.0578159
"696",702,"Kennedy Family Service Cntr Playlot","Private"," ",3,"Charlestown",0.2,"35 Vine Street","Residential District","Parks, Playgrounds & Athletic Fields","NULL"," ","N"," ","Vine Street Playlot","",0,0,NA,"INFO_Reallocation From Dept",8713.345703125,374.959313471639,42.3765511,-71.0578159
"697",703,"London Street Park","MassDOT","License",3,"East Boston",0.14,"89 London Street","Residential District","Parks, Playgrounds & Athletic Fields","Private"," ","N","X","London St Play Area;  E B Central Catholic Schl Park","",0,0,NA,"PARK_Maintenance_Region 1",6274.21337890625,317.069539146292,42.3732523,-71.0391579
"699",705,"West Roxbury H.S. Campus","City of Boston"," ",3,"West Roxbury",7.0780567," ","Institutional District","Parks, Playgrounds & Athletic Fields","NULL"," ","N","X"," ","",0,0,NA,"INFO_Reallocation From Dept",308320.222045898,5364.07356843904,42.2820359,-71.174083
"700",706,"Conley School Play Yard","City of Boston"," ",3,"Roslindale",1.42,"40 Poplar"," ","Parks, Playgrounds & Athletic Fields","NULL"," ","N","X"," ","",0,0,NA,"INFO_Reallocation From Dept",61904.3627929688,1937.95080040023,42.274782,-71.1270732
"701",707,"Columbia Road Park","Commonwealth of Massachusetts","A97",3,"Dorchester",0.12,"48 Buttonwood Street","Open Space District","Parks, Playgrounds & Athletic Fields","DCR"," ","X","X","John McCormack Park","",0,0,NA,"INFO_Reallocation From Dept",5390.63940429688,304.163632267398,42.320494,-71.0571194
"708",714,"Fire Alarm House Grounds","City of Boston","A97",3,"Fenway/Kenmore",0.84,"59 The Fenway","Open Space District","Parks, Playgrounds & Athletic Fields","BPRD","BFD","X"," ","Back Bay Fens","",0,0,NA,"INFO_Reallocation From Dept",36785.2658691406,1398.95423957175,42.3566836,-71.0519748
"717",723,"Dever School Schoolyard","City of Boston"," ",3,"Dorchester",1.13," "," ","Parks, Playgrounds & Athletic Fields","NULL"," ","N","X"," ","",0,0,NA,"INFO_Reallocation From Dept",49245.9543457031,1534.19482996846,42.317679,-71.0426997
"718",724,"McCormack School Courts","City of Boston"," ",3,"Dorchester",0.32,"325 Mt Vernon Street"," ","Parks, Playgrounds & Athletic Fields","NULL"," ","N","X"," ","",0,0,NA,"INFO_Reallocation From Dept",13785.6213378906,473.611553218092,42.3176242,-71.0436379
"732",738,"Mishawam Playlots","Private"," ",3,"Charlestown",0.24," ","Residential District","Parks, Playgrounds & Athletic Fields","NULL","Private","N","X"," ","",0,0,NA,"INFO_Reallocation From Dept",10432.5036621094,586.490499985382,42.3600825,-71.0588801
"737",743,"Maple Sonoma Streets Community Park","City of Boston"," ",3,"Roxbury",0.26,"84 Maple Street","Residential District","Parks, Playgrounds & Athletic Fields","NULL","Community Group/Nonprofit","N","X"," ","DND",0,0,NA,"INFO_Reallocation From Dept",11147.7761230469,445.536298707787,42.3600825,-71.0588801
"738",744,"Erie Wolcott Streets Park","BNAN","Land Trust",3,"Roxbury",0.25,"72-78 Erie Street","Residential District","Parks, Playgrounds & Athletic Fields","BNAN","BNAN","N","X"," ",NA,0,0,NA,"INFO_Reallocation From Dept",10845.8903808594,429.312758005184,42.3020198,-71.0815624
"740",746,"Sweeney Playground","City of Boston","A97",3,"South Boston",0.47965763,"180 West Fifth Str.","Residential District","Parks, Playgrounds & Athletic Fields","BPRD"," ","X","X"," ","",0,0,NA,"PARK_Maintenance_Region 6",20139.7897949219,606.818518730277,42.3371441,-71.0515411
"741",747,"Ryan Play Area","City of Boston","A97",3,"Dorchester",0.63,"9 Harborview Str.","Open Space District","Parks, Playgrounds & Athletic Fields","BPRD"," ","X","X"," ","",0,0,NA,"PARK_Maintenance_Region 2",27718.0434570312,682.230066459275,42.3863854,-71.0716905
"742",748,"Lambert Avenue Playground","City of Boston","A97",3,"Roxbury",0.66,"Opposite 52 Lambert Ave.","Open Space District","Parks, Playgrounds & Athletic Fields","BPRD"," ","X","X"," ","",0,0,NA,"PARK_Maintenance_Region 5",28837.8103027344,686.633527056133,42.3271968,-71.0907248
"743",749,"Adams King Playground","City of Boston","A97",3,"Dorchester",0.68,"470 Adams Str.","Residential District","Parks, Playgrounds & Athletic Fields","BPRD"," ","X","X","Old Hemenway School Site","",0,0,NA,"PARK_Maintenance_Region 2",29509.7055664062,695.100061124959,42.2934897,-71.0569267
"744",750,"Meany Park","Commonwealth of Massachusetts","A97",3,"Dorchester",0.22341152," ","Residential District","Parks, Playgrounds & Athletic Fields","DCR"," ","X","X"," ","",0,0,NA,"INFO_Reallocation From Dept",10147.8815917969,410.342283831623,42.3188052,-71.0589696
"748",754,"Clifford Playground","City of Boston","A97",3,"Roxbury",7.65642255,"Opposite 65 Proctor St.","Open Space District","Parks, Playgrounds & Athletic Fields","BPRD"," ","X","X"," ","",0,0,NA,"PARK_Maintenance_Region 5",329003.131591797,2814.56412804206,42.3264873,-71.0687192
"749",755,"Elmhurst Street Park","City of Boston","A97",3,"Dorchester",0.23484021,"27-35 Elmhurst Street","Residential District","Parks, Playgrounds & Athletic Fields","BPRD","BPRD","X","X","","BPRD",0,0,NA,"PARK_Maintenance_Ground Maintenance",10229.6396484375,437.957112853099,42.2890438,-71.0765718
"750",756,"Kevin Fitzgerald Park","Community Group/Nonprofit","Land Trust",3,"Jamaica Plain",6.58," ","Conservation Protection Subdistrict","Parks, Playgrounds & Athletic Fields","Community Group/Nonprofit"," ","N","X","Puddingstone Park","",0,0,NA,"INFO_Reallocation From Dept",286503.966064453,2815.78621456781,42.3323159,-71.1028877
"757",763,"Bradford Street Play Area","City of Boston","A97",3,"South End",0.04,"18 Bradford Str.","Residential District","Parks, Playgrounds & Athletic Fields","BPRD"," ","X","X"," ","",0,0,NA,"PARK_Maintenance_Region 6",1596.47534179688,161.649461988944,42.471285,-71.136817
"759",765,"Laviscount Park","City of Boston","A97",3,"Roxbury",0.64,"80 Humboldt Ave.","Open Space District","Parks, Playgrounds & Athletic Fields","BPRD","BPRD","X","X","Townsend Street Plaza","BPRD",0,0,NA,"PARK_Maintenance_Region 5",50272.5744628906,1081.07474441631,42.3166302,-71.0862681
"761",767,"Hynes Playground","City of Boston","A97",3,"West Roxbury",6.36389352,"480 VFW Pkwy","Open Space District","Parks, Playgrounds & Athletic Fields","BPRD"," ","X","X"," ","",0,0,NA,"PARK_Maintenance_Region 4",279491.687744141,2129.95501831755,42.2945376,-71.1533924
"762",768,"Rink Grounds","Commonwealth of Massachusetts","A97",3,"Charlestown",0.73," ","Open Space District","Parks, Playgrounds & Athletic Fields","DCR"," ","X","X"," ","",0,0,NA,"INFO_Reallocation From Dept",31985.9260253906,1995.2574542862,42.3412352,-71.084523
"763",769,"Columbia Road Totlot","City of Boston"," ",3,"Dorchester",0.22," ","Commercial/Office/Business District","Parks, Playgrounds & Athletic Fields","NULL"," ","N"," "," ","",0,0,NA,"INFO_Reallocation From Dept",9388.52319335938,403.966027722635,42.3106238,-71.0719691
"765",771,"Roxbury Heritage State Park I","Commonwealth of Massachusetts","A97",3,"Roxbury",2.81," ","Institutional District","Parks, Playgrounds & Athletic Fields","DCR"," ","X","X"," ","",0,0,NA,"PARK_Maintenance_Region 3",122703.809082031,3884.10699569689,42.3304235,-71.0904653
"770",776,"McCormack School Yard","City of Boston","",3,"Dorchester",0.58,"315 Mt Vernon Street","Commercial/Office/Business District","Parks, Playgrounds & Athletic Fields","NULL","","N","","","BPS",0,0,NA,"INFO_Reallocation From Dept",25390.0336914062,646.843718100369,42.3176242,-71.0436379
"772",778,"Joyce Playground","City of Boston","A97",3,"Allston-Brighton",1.31255051,"80 Union Street","Open Space District","Parks, Playgrounds & Athletic Fields","BPRD"," ","X","X"," ","",0,0,NA,"PARK_Maintenance_Region 4",59447.818359375,1041.22460075963,42.3451688,-71.15135
"773",779,"Cassidy Playground","City of Boston","A97",3,"Allston-Brighton",9.3341859,"381 Chestnut Hill Ave.","Open Space District","Parks, Playgrounds & Athletic Fields","BPRD"," ","X","X"," ","",0,0,NA,"PARK_Maintenance_Region 4",418485.180664062,2708.18130290874,42.3348413,-71.1526497
"774",780,"Shubow Park I","City of Boston","A97",3,"Allston-Brighton",0.57,"1825 Commonwealth Avenue","Open Space District","Parks, Playgrounds & Athletic Fields","BPRD","BPRD","X","X","Chiswick Park","",0,0,NA,"PARK_Maintenance_Region 4",24900.6032714844,770.589468996072,42.340244,-71.1520927
"775",781,"Shubow Park II","City of Boston","",3,"Allston-Brighton",0.16,"1825 Commonwealth Avenue","Open Space District","Parks, Playgrounds & Athletic Fields","NULL","BPRD","N","X","Chiswick Park","BPWD",0,0,NA,"PARK_Maintenance_Region 4",6776.513671875,671.207521129243,42.3425691,-71.1007045
"778",784,"Watson Park II","BHA"," ",3,"South End",0.02154804,"15 Taylor Str.","Residential District","Parks, Playgrounds & Athletic Fields","NULL","BHA","N"," "," ","",0,0,NA,"INFO_Reallocation From Dept",995.341796875,152.714973601761,42.3436736,-71.0687889
"779",785,"Watson Park I","BRA"," ",3,"South End",0.08,"15 Taylor Str.","Residential District","Parks, Playgrounds & Athletic Fields","NULL","BRA","N","X"," ","BRA",0,0,NA,"PARK_Maintenance_Region 6",3605.4208984375,399.924728714431,42.3437892,-71.0684871
"780",786,"Rossmore Stedman Park","City of Boston","A97",3,"Jamaica Plain",0.07394843,"Opposite 41 Rossmore Str.","Open Space District","Parks, Playgrounds & Athletic Fields","BPRD"," ","X","X"," ","",0,0,NA,"PARK_Maintenance_Region 3",3204.29663085938,248.070208521775,42.3047594,-71.106648
"781",787,"Brewer Burroughs Tot Lot","City of Boston","A97",3,"Jamaica Plain",0.18565302,"Opposite 2 Brewer Str.","Open Space District","Parks, Playgrounds & Athletic Fields","BPRD"," ","X","X"," ","",0,0,NA,"PARK_Maintenance_Region 3",8330.25,373.015354961216,42.376847,-71.0568214
"786",792,"Tebroc Street Playlot","City of Boston","",3,"Dorchester",0.02,"","Residential District","Parks, Playgrounds & Athletic Fields","","","N","X","","DND",0,0,NA,"INFO_Reallocation From Dept",945.75830078125,125.095162137201,42.2915205,-71.0562767
"790",796,"BU Yard","Private","",3,"Fenway/Kenmore",0.18,"","Residential District","Parks, Playgrounds & Athletic Fields","","","N","N","","",0,0,NA,"INFO_Reallocation From Dept",7986.96411132812,382.276942152896,42.3518484,-71.1107301
"795",801,"Webster Avenue Playground","City of Boston","A97",3,"Central Boston",0.06,"17-19 Unity Street","Residential District","Parks, Playgrounds & Athletic Fields","BPRD","","X","X","","BPRD",0,0,NA,"PARK_Maintenance_Ground Maintenance",2456.517578125,201.612683789483,42.3600825,-71.0588801
"798",804,"Mt. Pleasant Play Area","City of Boston","A97",3,"Roxbury",0.31333134,"30 Mt. Pleasant Ave.","Open Space District","Parks, Playgrounds & Athletic Fields","BPRD"," ","X","X"," ","",0,0,NA,"PARK_Maintenance_Region 5",17360.6442871094,575.620437990333,42.3270155,-71.0792115
"803",809,"Hennigan Schoolyard","City of Boston","100",3,"Jamaica Plain",1.86," ","Residential District","Parks, Playgrounds & Athletic Fields","NULL"," ","N","X"," ","",0,0,NA,"INFO_Reallocation From Dept",82063.6127929688,2412.58619533625,42.3260779,-71.1059516
"805",811,"Portsmouth Street Playground","City of Boston","A97",3,"Allston-Brighton",4.2823461,"35 Portsmouth Str.","Open Space District","Parks, Playgrounds & Athletic Fields","BPRD"," ","X","X"," ","",0,0,NA,"PARK_Maintenance_Region 4",185610.087646484,1913.38879111584,42.3593091,-71.1454086
"815",821,"Castle Square Parks","BRA"," ",3,"South End",1.19," ","Residential District","Parks, Playgrounds & Athletic Fields","NULL"," ","N"," "," ","",0,0,NA,"PARK_Maintenance_Ground Maintenance",51812.046875,2254.52681475963,42.3456113,-71.0680693
"818",824,"Roberts Playground","City of Boston","A97",3,"Dorchester",10.18916048,"56 Dunbar Str.","Residential District","Parks, Playgrounds & Athletic Fields","BPRD"," ","X","X"," ","",0,0,NA,"PARK_Maintenance_Region 2",443387.329833984,3001.45957961185,42.285762,-71.073919
"819",825,"Willow Pond Meadow","Commonwealth of Massachusetts","A97/WPA",3,"Jamaica Plain",6.29554264," ","Open Space District","Parks, Playgrounds & Athletic Fields","DCR","DCR","X","X","Olmsted Park","",0,0,NA,"PARK_Maintenance_Region 3",272323.114746094,2217.40104114968,42.3243637,-71.1155145
"820",826,"Olmsted Park","City of Boston","A97/NRHP/RSP",3,"Jamaica Plain",42.95562559," ","Open Space District","Parks, Playgrounds & Athletic Fields","BPRD","BPRD","X","X","Daisy Field","",0,0,NA,"PARK_Maintenance_Region 3",1865347.22949219,8807.4838270083,42.3258562,-71.1148667
"823",829,"Frieda Garcia Park","City of Boston","A97",3,"Back Bay/Beacon Hill",0.27,"","Commercial/Office/Business District","Parks, Playgrounds & Athletic Fields","BPRD","Private","X","X","","BPRD",0,0,NA,"PARK_Maintenance_Ground Maintenance",11665.3823242188,486.116817178127,42.3481644,-71.0734547
"828",834,"George Wright Golf Course","City of Boston","A97",3,"Roslindale",156.37,"420 West Str.","Residential District","Parks, Playgrounds & Athletic Fields","BPRD"," ","X","X"," ","",0,0,NA,"PARK_Maintenance_Region 4",6794170.71801758,14378.2881265902,42.2684323,-71.1327971
"833",839,"The Park at Fan Pier","Private","Ch91",3,"South Boston",1.26,"68 Northern Avenue","Special District","Parks, Playgrounds & Athletic Fields","Private","Private","N","X","Marina Park","",0,0,NA,"INFO_Reallocation From Dept",55008.5549316406,1272.57570295491,42.3548753,-71.0462482
"834",840,"McLaughlin Playground","City of Boston","A97",3,"Jamaica Plain",11.72747534,"239 Parker Hill Ave.","Open Space District","Parks, Playgrounds & Athletic Fields","BPRD"," ","X","X"," ","",0,0,NA,"PARK_Maintenance_Region 3",508293.368164062,4113.63832795452,42.328156,-71.1028877
"838",844,"Butterfly Garden","Community Group/Nonprofit","",3,"Jamaica Plain",0.27,"9 Bucknam Street","Residential District","Parks, Playgrounds & Athletic Fields","","","N","X","Bucknam Street Garden","",0,0,NA,"INFO_Reallocation From Dept",11559.3784179688,450.634023422235,42.3269794,-71.1040483
"845",851,"LoPresti Park","City of Boston","A97",3,"East Boston",3.23,"33 Summer Str.","Open Space District","Parks, Playgrounds & Athletic Fields","BPRD"," ","X","X"," ","",0,0,NA,"PARK_Maintenance_Region 1",140872.089355469,2467.90552121526,42.3701659,-71.0436481
"846",852,"Raymond V. Mellone Park I","City of Boston","A97",3,"Allston-Brighton",1.08,"","Special District","Parks, Playgrounds & Athletic Fields","BPRD","BPRD","X","X","Library Park I","BPRD",0,0,NA,"INFO_Reallocation From Dept",47084.0236816406,1100.2018402076,42.3601306,-71.1280132
"847",853,"Raymond V. Mellone Park II","City of Boston","100",3,"Allston-Brighton",0.48,"","Special District","Parks, Playgrounds & Athletic Fields","","BPRD","N","X","Library Park II","BPL",0,0,NA,"INFO_Reallocation From Dept",20696.4418945312,955.866087523901,42.3601306,-71.1280132
"849",855,"Elliot Norton Park","City of Boston","A97",3,"Central Boston",0.77064426,"277 Tremont Str.","Special District","Parks, Playgrounds & Athletic Fields","BPRD","BPRD","X","X"," ","BPRD",0,0,NA,"PARK_Maintenance_Region 1",41164.4694824219,1250.56050397471,42.3491235,-71.0660265
"851",857,"Beauford Play Area","City of Boston","A97",3,"Roxbury",0.23995873,"127 Howard Ave.","Open Space District","Parks, Playgrounds & Athletic Fields","BPRD"," ","X","X"," "," ",0,0,NA,"PARK_Maintenance_Region 5",10268.2390136719,411.343254800503,42.3600825,-71.0588801
"852",858,"King School Park","BRA"," ",3,"Roxbury",0.82,"110-122 Intervale St","Open Space District","Parks, Playgrounds & Athletic Fields","NULL"," ","N","X"," ","",0,0,NA,"PARK_Maintenance_Region 5",35736.2661132812,868.336938607812,42.3110873,-71.076426
"853",859,"Children's Park","City of Boston","A97",3,"Roxbury",0.19,"81-85 Intervale St","Open Space District","Parks, Playgrounds & Athletic Fields","BPRD"," ","X","X"," ","",0,0,NA,"PARK_Maintenance_Region 5",8435.740234375,368.180416223995,42.3105844,-71.0780509
"854",860,"Winthrop Playground","City of Boston","A97",3,"Roxbury",1.5608951," ","Open Space District","Parks, Playgrounds & Athletic Fields","BPRD"," ","X","X"," ","",0,0,NA,"PARK_Maintenance_Region 5",67993.7993164062,1070.2739640486,42.3600825,-71.0588801
"863",869,"Fredericks Middle School Playground","City of Boston"," ",3,"Roxbury",5.13,"262-274 Columbia Road","Industrial District","Parks, Playgrounds & Athletic Fields","NULL","BPS","N","X"," ","",0,0,NA,"PARK_Maintenance_Region 5",223449.903564453,2439.94983078142,42.3091746,-71.0755999
"865",871,"Ceylon Park I","City of Boston","A97",3,"Roxbury",4.17142627,"Opposite 261 Magnolia Str.","Open Space District","Parks, Playgrounds & Athletic Fields","BPRD"," ","X","X"," ","",0,0,NA,"PARK_Maintenance_Region 5",180796.145263672,2768.74271427553,42.3102596,-71.0739496
"866",872,"Ceylon Park II","BRA","",3,"Roxbury",0.49,"Opposite 261 Magnolia Str.","Open Space District","Parks, Playgrounds & Athletic Fields","NULL"," ","N","X"," ","",0,0,NA,"INFO_Reallocation From Dept",21463.9992675781,1076.76984998632,42.3102596,-71.0739496
"867",873,"Dickerman School Yard","City of Boston","",3,"Roxbury",0.55,"Magnolia Street","Residential District","Parks, Playgrounds & Athletic Fields","NULL","","N","X","","BPS",0,0,NA,"INFO_Reallocation From Dept",23795.7104492188,809.900059710522,42.3109314,-71.0767176
"868",874,"Hannon Playground","City of Boston","A97",3,"Roxbury",1.97257523,"Opposite 624 Dudley Str.","Open Space District","Parks, Playgrounds & Athletic Fields","BPRD"," ","X","X","Mary Hannon Plgd","",0,0,NA,"PARK_Maintenance_Region 5",85693.2504882812,1164.34823455915,42.3193858,-71.0715048
"871",877,"Old West Church Yard","Private","",3,"Central Boston",0.19,"131 Cambridge Street","Special District","Parks, Playgrounds & Athletic Fields","","","N","X","","",0,0,NA,"INFO_Reallocation From Dept",8183.076171875,416.755420010623,42.3616665,-71.0642296
"872",878,"Healy Playground","City of Boston","A97",3,"Roslindale",9.53912629,"Opposite 155 Florence Str.","Residential District","Parks, Playgrounds & Athletic Fields","BPRD"," ","X","X"," ","",0,0,NA,"PARK_Maintenance_Region 4",418345.942871094,2765.11862396763,42.2884376,-71.1238574
"873",879,"South End Library Park","City of Boston","",3,"South End",0.19,"685 Tremont St","Commercial/Office/Business District","Parks, Playgrounds & Athletic Fields","NULL","BPRD","N","X"," ","BPL",0,0,NA,"PARK_Maintenance_Region 6",8242.4306640625,366.745913358429,42.3411074,-71.0773545
"874",880,"Menino Park","BRA","WPA/Ch91",3,"Charlestown",1.24,"First Avenue & Sixteenth Street","Special District","Parks, Playgrounds & Athletic Fields","BRA","Private+BPRD","X","X","Parcel 5 Park, Spaulding Park","BPRD",0,0,NA,"INFO_Reallocation From Dept",53867.345703125,1209.68395531372,42.3779187,-71.0482459
"875",881,"Mission Main Park","BHA","",3,"Mission Hill",0.71,"","Residential District","Parks, Playgrounds & Athletic Fields","","BHA","N","X","","BHA",0,0,NA,"INFO_Reallocation From Dept",31025.3869628906,701.691616989197,42.3336467,-71.1086821
"878",884,"Alice Taylor Homes Playlots","BHA","",3,"Mission Hill",0.15,"","Residential District","Parks, Playgrounds & Athletic Fields","","BHA","N","X","","",0,0,NA,"INFO_Reallocation From Dept",6537.1455078125,642.799313408689,42.3600825,-71.0588801
"880",886,"Mission Main Playlots","BHA","",3,"Mission Hill",0.82,"","Residential District","Parks, Playgrounds & Athletic Fields","","BHA","N","X","","BHA",0,0,NA,"INFO_Reallocation From Dept",35848.9396972656,2144.61150396213,42.3339639,-71.0987837
"881",887,"Mission Church Gardens","Private","",3,"Mission Hill",1.13,"1545-1565 Tremont St","Institutional District","Parks, Playgrounds & Athletic Fields","Private","Private","N","","","Private",0,0,NA,"INFO_Reallocation From Dept",49280.6462402344,1552.12381594272,42.3329846,-71.100056
"882",888,"Franklin Hill Green","BHA"," ",3,"Mattapan",0.51," ","Residential District","Parks, Playgrounds & Athletic Fields","NULL","BHA","N","X"," ","BHA",0,0,NA,"PARK_Maintenance_Ground Maintenance",22055.3181152344,608.337333976785,42.2950873,-71.0905584
"883",889,"Spectacle Island I","City of Boston","A97",3,"Harbor Islands",86,"","Industrial District","Parks, Playgrounds & Athletic Fields","BPRD","DCR","X","X","Spectacle Island","BPRD",0,0,NA,"INFO_Reallocation From Dept",3746063.9621582,11421.4244313022,42.3600825,-71.0588801
"885",891,"Bunker Hill CC Athletic Fields","Commonwealth of Massachusetts"," ",3,"Charlestown",14.07," ","Institutional District","Parks, Playgrounds & Athletic Fields","NULL","COM","N"," "," ","COM",0,0,NA,"PARK_Maintenance_Region 1",612744.903808594,3979.86794267101,42.3849745,-71.0153111
"886",892,"Bunker Hill CC Campus Grounds","Commonwealth of Massachusetts","",3,"Charlestown",NA,"","Institutional District","Parks, Playgrounds & Athletic Fields","","COM","N","X","","COM",0,0,NA,"INFO_Reallocation From Dept",178364.306152344,2506.91863862564,42.3683362,-71.0384613
"888",894,"Cook Street Play Area","City of Boston","A97",3,"Charlestown",0.0981234,"Adjacent to 9 Hill Str.","Residential District","Parks, Playgrounds & Athletic Fields","BPRD"," ","X","X"," ","",0,0,NA,"PARK_Maintenance_Region 1",4414.66333007812,320.965970905935,42.3808848,-71.0640301
"890",896,"Charlestown Naval Shipyard Park II","Private","A97/LWCF/Ch91/W",3,"Charlestown",0.85580779," ","Commercial/Office/Business District","Parks, Playgrounds & Athletic Fields","NULL"," ","N","X","Shipyard Park","",0,0,NA,"INFO_Reallocation From Dept",32836.6508789062,836.968249079921,42.3749415,-71.0540018
"891",897,"Navy Yard Grounds","United States of America","NPS",3,"Charlestown",3.58," ","Industrial District","Parks, Playgrounds & Athletic Fields","National Park Service"," ","X","X","Boston National Historical Par","",0,0,NA,"INFO_Reallocation From Dept",155968.322509766,5411.33778404156,42.3793599,-71.0510572
"892",898,"Christopher Columbus Park","City of Boston","A97/LWCF/Ch91/W",3,"Central Boston",4.74438387,"110 Atlantic Ave.","Open Space District","Parks, Playgrounds & Athletic Fields","BPRD"," ","X","X","Waterfront Park","",0,0,NA,"PARK_Maintenance_Region 1",211997.966064453,2041.98341225184,42.3609921,-71.0516339
"895",901,"Peter Looney Park","City of Boston","A97",3,"Charlestown",0.67,"127 Old Rutherford Ave.","Residential District","Parks, Playgrounds & Athletic Fields","BPRD","BPRD","X","X","Rutherford Union Playground","BPRD",0,0,NA,"PARK_Maintenance_Region 1",29114.2580566406,870.236985869131,42.3600825,-71.0588801
"898",904,"Charlestown Naval Shipyard Park I","BRA","A97/LWCF/Ch91/W",3,"Charlestown",9.58," ","Commercial/Office/Business District","Parks, Playgrounds & Athletic Fields","NULL","","X","X","Shipyard Park","",0,0,NA,"PARK_Maintenance_Region 1",417339.073242188,7710.52496682853,42.3749415,-71.0540018
"903",909,"Umana Schoolyard","City of Boston"," ",3,"East Boston",2.52044147," ","Open Space District","Parks, Playgrounds & Athletic Fields","NULL"," ","N","X"," ","",0,0,NA,"PARK_Maintenance_Ground Maintenance",117673.202636719,1702.27663173596,42.3783625,-71.0407417
"906",912,"Jefferson Playground","City of Boston","A97",3,"Jamaica Plain",3.29588256,"Opposite 200 Heath Str.","Open Space District","Parks, Playgrounds & Athletic Fields","BPRD"," ","X","X"," ","",0,0,NA,"PARK_Maintenance_Region 3",148127.943359375,1718.30815018171,42.3260166,-71.1086441
"912",918,"Amory Street Park","City of Boston","",3,"Jamaica Plain",NA,"","Residential District","Parks, Playgrounds & Athletic Fields","","DND","N","X","","DND",0,0,NA,"PARK_Maintenance_Region 3",5324.703125,304.147780452599,42.314675,-71.1046991
"913",919,"Kelly Outdoor Skating Rink","MBTA","",3,"Jamaica Plain",NA,"","Industrial District","Parks, Playgrounds & Athletic Fields","NULL","DCR","N","X","","DCR",0,0,NA,"INFO_Reallocation From Dept",15586.4899902344,591.760154102322,42.3182346,-71.1033055
"914",920,"New Academy Estates Courtyard","Private","",3,"Jamaica Plain",NA,"","Residential District","Parks, Playgrounds & Athletic Fields","","Private","N","X","","Private",0,0,NA,"INFO_Reallocation From Dept",3295.40795898438,360.146712779872,42.3178747,-71.0963575
"915",921,"New Academy Estates Half Court","Private","",3,"Jamaica Plain",NA,"","Residential District","Parks, Playgrounds & Athletic Fields","","Private","N","X","","Private",0,0,NA,"INFO_Reallocation From Dept",3945.57348632812,254.76500654519,42.3178747,-71.0963575
"916",922,"Hernandez Schoolyard","City of Boston","",3,"Jamaica Plain",NA,"","","Parks, Playgrounds & Athletic Fields","","BPS","N","X","","BPS",0,0,NA,"INFO_Reallocation From Dept",20354.8237304688,590.596373284842,42.3600825,-71.0588801
"917",923,"Philbrick Schoolyard","City of Boston"," ",3,"Roslindale",NA," ","Residential District","Community Gardens","NULL","BPS","N","X"," ","BPS",0,0,NA,"INFO_Reallocation From Dept",13073.5891113281,772.718408409948,42.3109764,-71.0688121
"918",924,"Dixwell Street Playlot","City of Boston","",3,"Jamaica Plain",NA,"17 Dixwell Street","Residential District","Parks, Playgrounds & Athletic Fields","","DND","N","X","","DND",0,0,NA,"INFO_Reallocation From Dept",4149.40380859375,267.00327432797,42.2958614,-71.1131006
"919",925,"Puopolo Playground","City of Boston","A97/Ch91/WPA",3,"Central Boston",2.09019043,"521 Commercial Str.","Open Space District","Parks, Playgrounds & Athletic Fields","BPRD"," ","X","X"," ","",0,0,NA,"PARK_Maintenance_Region 1",156399.98828125,1670.44361305596,42.3687115,-71.0560417
"920",926,"Boston State Hospital Campus","Commonwealth of Massachusetts"," ",3,"Mattapan",17.69," ","Industrial District","Parks, Playgrounds & Athletic Fields","NULL","Private","N","X"," ","DCAMM",0,0,NA,"INFO_Reallocation From Dept",770574.512207031,4519.76628953125,42.3376672,-71.1052864
"921",927,"State Public Health Campus","Commonwealth of Massachusetts"," ",3,"Mattapan",11.81," ","Industrial District","Parks, Playgrounds & Athletic Fields","NULL"," ","N","X"," ","DCAMM",0,0,NA,"INFO_Reallocation From Dept",514243.163330078,6658.57426682579,42.2845016,-71.1014022
"922",928,"Olmsted Green Park","Private","",3,"Mattapan",0.09,"","Special District","Parks, Playgrounds & Athletic Fields","","Private","N","X","","",0,0,NA,"INFO_Reallocation From Dept",3823.85205078125,256.634303021738,42.2903818,-71.0950784
"924",930,"South Street BHA Play Area","BHA"," ",3,"Jamaica Plain",0.1," ","Residential District","Parks, Playgrounds & Athletic Fields","NULL","BHA","N","X"," ","BHA",0,0,NA,"INFO_Reallocation From Dept",4177.43579101562,308.592510269661,42.3060858,-71.1149991
"925",931,"Manning Schoolyard","City of Boston","",3,"Jamaica Plain",0.22,"","","Parks, Playgrounds & Athletic Fields","","BPS","N","X","","BPS",0,0,NA,"INFO_Reallocation From Dept",9740.5283203125,534.166181958495,42.8813967,-71.3265826
"927",933,"Salvation Army Field","Private"," ",3,"Dorchester",1.48," ","Residential District","Parks, Playgrounds & Athletic Fields","NULL","Private","N"," "," ","NULL",0,0,NA,"INFO_Reallocation From Dept",64656.6486816406,1139.39412345359,42.3193174,-71.0706692
"928",934,"A Street Park I","City of Boston","A97",3,"South Boston",1.36,"135-141 A Street","Special District","Parks, Playgrounds & Athletic Fields","BPRD","Private","X","X","Channel Center Park","BPRD",0,0,NA,"INFO_Reallocation From Dept",59269.4663085938,1012.0906369162,42.3452839,-71.0524492
"932",938,"Stony Brook Commons Park","Private","",3,"Roslindale",1.53,"390 Blue Ledge Drive","Residential District","Parks, Playgrounds & Athletic Fields","","","N","","","",0,0,NA,"INFO_Reallocation From Dept",66604.6452636719,1129.20748135676,42.2741418,-71.1388938
"933",939,"Franklin Park","City of Boston","A97/WPA/NRHP",3,"Roxbury",392.16,"143 Seaver St.","Open Space District","Parks, Playgrounds & Athletic Fields","BPRD","BPRD","X","X"," ","BPRD",0,0,NA,"PARK_Maintenance_Region 3",17082410.2321777,36183.7640744321,42.3030738,-71.0868152
"934",940,"Q Park","Private","Mitigation",3,"South Boston",0.6,"29 Stillings Street","Industrial District","Parks, Playgrounds & Athletic Fields","","","N","X","","",0,0,NA,"INFO_Reallocation From Dept",26110.5693359375,648.754887563687,42.3431008,-71.1024219
"936",942,"Adams Park","City of Boston","A97",3,"Roslindale",0.7,"Opposite 4228 Washington","Commercial/Office/Business District","Parks, Playgrounds & Athletic Fields","BPRD","Private","X","X","Irving W. Adams Park, Roslindale Square, Hartin Square","",0,0,NA,"PARK_Maintenance_Region 4",30714.7021484375,815.034434070241,42.2864997,-71.1284194
"937",943,"Arnold Arboretum","City of Boston","A97/GPOD/WPA",3,"Jamaica Plain",224.26,"Opposite 376 Arborway Str.","Open Space District","Parks, Playgrounds & Athletic Fields","BPRD","Private","X","X"," ","BPRD",0,0,NA,"PARK_Maintenance_Region 3",9768623.9050293,21745.9966466707,42.3073674,-71.1207759
"938",944,"Soldiers Field","Private"," ",3,"Allston-Brighton",61.96925141," ","Institutional District","Parks, Playgrounds & Athletic Fields","NULL"," ","N"," ","Harvard Ath. Flds.","",0,0,NA,"INFO_Reallocation From Dept",2682458.54443359,10870.5967119646,42.3645558,-71.1359136
"939",945,"YMCA Athletic Field","Private"," ",3,"Roxbury",2.34," ","Institutional District","Parks, Playgrounds & Athletic Fields","NULL"," ","N"," "," ","",0,0,NA,"INFO_Reallocation From Dept",101971.293945312,1364.88348284748,42.3407315,-71.0872924
"940",946,"Higginson Schoolyard","City of Boston","",3,"Roxbury",0.34619095," ","Residential District","Parks, Playgrounds & Athletic Fields","NULL"," ","N","X"," ","",0,0,NA,"INFO_Reallocation From Dept",18216.2751464844,557.074598211977,42.3173549,-71.0916069
"941",947,"Windsor School Athletic Field","Private"," ",3,"Fenway/Kenmore",1.37," ","Residential District","Parks, Playgrounds & Athletic Fields","NULL"," ","N"," "," ","",0,0,NA,"INFO_Reallocation From Dept",59819.078125,1016.70511016526,42.3397136,-71.1080321
"942",948,"Almont Park","City of Boston","A97",3,"Mattapan",17.04561712," ","Open Space District","Parks, Playgrounds & Athletic Fields","BPRD","BPRD","X","X","Hunt Playground","BPRD",0,0,NA,"PARK_Maintenance_Region 2",791322.692138672,4019.77682976824,42.2742287,-71.0969496
"944",950,"Mt. Vernon Street Plaza","Massport"," ",3,"Charlestown",0.15," ","Residential District","Parks, Playgrounds & Athletic Fields","NULL"," ","N","X"," ","",0,0,NA,"INFO_Reallocation From Dept",6403.00170898438,416.482533627277,42.3201072,-71.0489521
"956",962,"Forbes Street Playground","City of Boston","A97",3,"Jamaica Plain",0.09," ","Residential District","Parks, Playgrounds & Athletic Fields","BPRD"," ","X","X"," ","",0,0,NA,"PARK_Maintenance_Ground Maintenance",3970.39233398438,259.269668988149,42.3205082,-71.1061837
"957",963,"Union Park Street Playground","Boston Water & Sewer Commission","Lease",3,"South End",0.41," ","Special District","Parks, Playgrounds & Athletic Fields","BPRD"," ","N","X"," ","",0,0,NA,"INFO_Reallocation From Dept",17848.9033203125,576.866324971822,42.3395347,-71.0655784
"958",964,"Porzio Park II","City of Boston","",3,"East Boston",0.14,"","","Parks, Playgrounds & Athletic Fields","","","N","X","","DND",0,0,NA,"PARK_Maintenance_Region 1",6206.19921875,451.199765353796,42.3651506,-71.028859
"959",965,"Porzio Park","City of Boston","A97/WPA/Ch91",3,"East Boston",1.65840158,"14 Jeffries Str.","Open Space District","Parks, Playgrounds & Athletic Fields","BPRD","BPRD","X","X","Jeffries Point Park","BPRD",0,0,NA,"PARK_Maintenance_Region 1",102871.093261719,2300.38278535598,42.3651506,-71.028859
"961",967,"Roxbury Latin Schl Athletic Fields","Private"," ",3,"West Roxbury",38.5," ","Institutional District","Parks, Playgrounds & Athletic Fields","NULL"," ","N"," "," ","",0,0,NA,"INFO_Reallocation From Dept",1677064.28100586,10721.7341188369,42.2744731,-71.1578484
"964",970,"Ross Playground","City of Boston","A97",3,"Hyde Park",13.04038894,"130 Westminster Str.","Residential District","Parks, Playgrounds & Athletic Fields","BPRD"," ","X","X"," ","",0,0,NA,"PARK_Maintenance_Region 4",571686.079589844,3061.9440080639,42.2639195,-71.1132863
"966",972,"Canterbury II","Private","",3,"Roslindale",3.8,"","Conservation Protection Subdistrict","Parks, Playgrounds and Athletic Fields","","","N","","Sacred Heart School Field","",0,0,NA,"INFO_Reallocation From Dept",165642.9296875,1959.15756780094,42.2921066,-71.1006594
"967",973,"Canterbury III","Private","",3,"Roslindale",0.64,"","Residential District","Parks, Playgrounds and Athletic Fields","","","N","","Sacred Heart School Playground","",0,0,NA,"INFO_Reallocation From Dept",27706.4821777344,950.714344906289,42.2921066,-71.1006594
"972",978,"Savin Hill Park","City of Boston","A97",3,"Dorchester",8.29468216,"Opposite 124 Grampian Way","Residential District","Parks, Playgrounds & Athletic Fields","BPRD"," ","X","X"," ","",0,0,NA,"PARK_Maintenance_Region 2",361100.154541016,2665.61079883448,42.3105804,-71.0486625
"975",981,"Orton Field","City of Boston","A97",3,"South Boston",1.59,"Crowley-Rogers Way, St Casimir St, Flaherty Way","Residential District","Parks, Playgrounds & Athletic Fields","BPRD","BPS","X","X","Condon Playground","BPRD",0,0,NA,"PARK_Maintenance_Region 6",69449.4838867188,1050.93504767708,42.3385595,-71.0533053
"976",982,"Paul Gore Street Park","City of Boston","A97",3,"Jamaica Plain",0.73,"60 Paul Gore Street","Open Space District","Parks, Playgrounds & Athletic Fields","BPRD","BPRD","X","X","Paul Gore Street Garden;  Paul Gore Street Playground","BPRD",0,0,NA,"PARK_Maintenance_Ground Maintenance",31971.4138183594,779.091241416227,42.3193007,-71.1075489
"977",984,"Allen Park","City of Boston","A97",3,"Dorchester",1.29," ","Residential District","Parks, Playgrounds & Athletic Fields","BPRD"," ","X","X","Rev James K Allen Park, James F Donovan Park, Dorchester Square","",0,0,NA,"PARK_Maintenance_Region 2",56338.7407226562,957.857541837172,42.3081199,-71.0629623
"978",985,"Boston Nature Center_Visitor Ctr","City of Boston","Trust Fund",3,"Mattapan",1.99830697," ","Industrial District","Parks, Playgrounds & Athletic Fields","George Robert White Fund","Mass Audubon Society","X","X","G R White Env Conserv Ctr","",0,0,NA,"INFO_Reallocation From Dept",101515.178222656,1273.18167249917,42.2880994,-71.1012022
"981",988,"McLean Playground","City of Boston","A97",3,"East Boston",0.42966509,"Between Bennington & Saratoga St.","Open Space District","Parks, Playgrounds & Athletic Fields","BPRD"," ","X","X"," ","",0,0,NA,"PARK_Maintenance_Region 1",18602.0874023438,547.960556914596,42.3826812,-71.0192256
"982",989,"Navy Fuel Pier Airport Edge Buffer","Massport","",3,"East Boston",0.84,"","","Parks, Playgrounds & Athletic Fields","","","N","X","","Massport",0,0,NA,"INFO_Reallocation From Dept",36742.26171875,1374.52468547087,42.363536,-71.0296404
"983",990,"Fidelis Way Park","City of Boston","A97",3,"Allston-Brighton",5.10486027,"Opposite 1505 Commonwealth Ave.","Open Space District","Parks, Playgrounds & Athletic Fields","BPRD","BPRD","X","X","Overlook Park","BPRD",0,0,NA,"PARK_Maintenance_Region 4",213583.428955078,2611.58010845208,42.3479394,-71.1431806
"984",991,"Harambee Park","City of Boston","A97",3,"Mattapan",45.55780088,"120 Westview Str.","Residential District","Parks, Playgrounds & Athletic Fields","BPRD"," ","X","X","Franklin Field","",0,0,NA,"PARK_Maintenance_Region 2",1949027.01489258,6423.91548567069,42.2920598,-71.0846897
"988",995,"VFW Parkway II","City of Boston","A97",3,"West Roxbury",0.65,"","Open Space District","Parks, Playgrounds & Athletic Fields","BPRD","BPRD","X","X","","BPRD",0,0,NA,"PARK_Maintenance_Ground Maintenance",28162.59375,804.392489504737,42.266627,-71.1699808
"989",996,"Carroll Pond Playground","City of Boston","A97",3,"West Roxbury",0.47169423," ","Residential District","Parks, Playgrounds & Athletic Fields","BPRD"," ","X","X"," ","",0,0,NA,"PARK_Maintenance_Ground Maintenance",21094.0067138672,581.308810372545,42.2564299,-71.1597978
"996",1402,"A Street Park II","City of Boston","",3,"South Boston",0.25,"135-141 A Street","Special District","Parks, Playgrounds & Athletic Fields","","Private","N","X","Channel Center Park","BPWD",0,0,NA,"INFO_Reallocation From Dept",10813.0524902344,746.948868255348,42.3604864,-71.0569267
"997",1405,"Blue Hill Club Recreation Center","City of Boston","A97",3,"Dorchester",3.04,"15 Talbot Street","Open Space District","Parks, Playgrounds & Athletic Fields","White Fund","Private","X","X","Berkshire Partners Blue Hill Club (Boys & Girls Club)","Trust Office",0,0,NA,"INFO_Reallocation From Dept",132501.762939453,1527.32366641503,42.3567779,-71.0519411
"999",1820,"Columbia Park","City of Boston","A97",3,"South Boston",0.34,"Columbia Road, Farragut Road, East Sixth Street","Open Space District","Parks, Playgrounds & Athletic Fields","BPRD","BPRD","X","X","McGrail Memorial","BPRD",0,0,NA,"PARK_Maintenance_Ground Maintenance",14780.4072265625,545.242824231599,42.2630915,-71.0920922
"1001",2605,"Harrison Plympton Basketball Court","City of Boston","NULL",3,"South End",0.22,"","Special District","Parks, Playgrounds & Athletic Fields","","BPD","N","X","","BPD",0,0,NA,"INFO_Reallocation From Dept",9437.3701171875,399.342128136476,42.3600825,-71.0588801
